{
  "type": "FeatureCollection",
  "features": [
    {
      "type": "Feature",
      "geometry": {
        "type": "MultiPolygon",
        "coordinates": [
          [
            [
              [
                -81.37391799987783,
                40.80075699984221
              ],
              [
                -81.37398700037313,
                40.800543000251906
              ],
              [
                -81.37306500010824,
                40.80035700033995
              ],
              [
                -81.37281599968789,
                40.801061000082235
              ],
              [
                -81.37325400025412,
                40.80114799974256
              ],
              [
                -81.37375100037157,
                40.801238000162186
              ],
              [
                -81.37391799987783,
                40.80075699984221
              ]
            ]
          ]
        ]
      },
      "properties": {
        "slug": "census-block-391517001002012",
        "geoid": "391517001002012",
        "name": "Block 2012",
        "districtSlug": "census-bg-391517001002",
        "sourceRefs": [
          "census-tigerweb-blocks-2026-09-13"
        ]
      }
    },
    {
      "type": "Feature",
      "geometry": {
        "type": "MultiPolygon",
        "coordinates": [
          [
            [
              [
                -81.37306500010824,
                40.80035700033995
              ],
              [
                -81.3733029997596,
                40.79966999984354
              ],
              [
                -81.37241900002786,
                40.79949399997984
              ],
              [
                -81.3721760003536,
                40.800178000016565
              ],
              [
                -81.37306500010824,
                40.80035700033995
              ]
            ]
          ]
        ]
      },
      "properties": {
        "slug": "census-block-391517001002020",
        "geoid": "391517001002020",
        "name": "Block 2020",
        "districtSlug": "census-bg-391517001002",
        "sourceRefs": [
          "census-tigerweb-blocks-2026-09-13"
        ]
      }
    },
    {
      "type": "Feature",
      "geometry": {
        "type": "MultiPolygon",
        "coordinates": [
          [
            [
              [
                -81.37490999956464,
                40.800729000322725
              ],
              [
                -81.37514999976413,
                40.80003700009065
              ],
              [
                -81.37423000004739,
                40.799851999752775
              ],
              [
                -81.37398700037313,
                40.800543000251906
              ],
              [
                -81.37490999956464,
                40.800729000322725
              ]
            ]
          ]
        ]
      },
      "properties": {
        "slug": "census-block-391517001002022",
        "geoid": "391517001002022",
        "name": "Block 2022",
        "districtSlug": "census-bg-391517001002",
        "sourceRefs": [
          "census-tigerweb-blocks-2026-09-13"
        ]
      }
    },
    {
      "type": "Feature",
      "geometry": {
        "type": "MultiPolygon",
        "coordinates": [
          [
            [
              [
                -81.3767020002159,
                40.8010850003282
              ],
              [
                -81.3769420004154,
                40.80039799988642
              ],
              [
                -81.37605000028773,
                40.800218000047145
              ],
              [
                -81.37580800043841,
                40.800909000136265
              ],
              [
                -81.3767020002159,
                40.8010850003282
              ]
            ]
          ]
        ]
      },
      "properties": {
        "slug": "census-block-391517001002024",
        "geoid": "391517001002024",
        "name": "Block 2024",
        "districtSlug": "census-bg-391517001002",
        "sourceRefs": [
          "census-tigerweb-blocks-2026-09-13"
        ]
      }
    },
    {
      "type": "Feature",
      "geometry": {
        "type": "MultiPolygon",
        "coordinates": [
          [
            [
              [
                -81.37714800027973,
                40.79979900019685
              ],
              [
                -81.3771750000439,
                40.79971000018025
              ],
              [
                -81.37629200013707,
                40.799527000244815
              ],
              [
                -81.37605000028773,
                40.800218000047145
              ],
              [
                -81.3769420004154,
                40.80039799988642
              ],
              [
                -81.37714800027973,
                40.79979900019685
              ]
            ]
          ]
        ]
      },
      "properties": {
        "slug": "census-block-391517001002027",
        "geoid": "391517001002027",
        "name": "Block 2027",
        "districtSlug": "census-bg-391517001002",
        "sourceRefs": [
          "census-tigerweb-blocks-2026-09-13"
        ]
      }
    },
    {
      "type": "Feature",
      "geometry": {
        "type": "MultiPolygon",
        "coordinates": [
          [
            [
              [
                -81.37629200013707,
                40.799527000244815
              ],
              [
                -81.37614499982398,
                40.79949999984376
              ],
              [
                -81.37539599981143,
                40.799343999804876
              ],
              [
                -81.37524100000074,
                40.79976299980718
              ],
              [
                -81.37514999976413,
                40.80003700009065
              ],
              [
                -81.37605000028773,
                40.800218000047145
              ],
              [
                -81.37629200013707,
                40.799527000244815
              ]
            ]
          ]
        ]
      },
      "properties": {
        "slug": "census-block-391517001002028",
        "geoid": "391517001002028",
        "name": "Block 2028",
        "districtSlug": "census-bg-391517001002",
        "sourceRefs": [
          "census-tigerweb-blocks-2026-09-13"
        ]
      }
    },
    {
      "type": "Feature",
      "geometry": {
        "type": "MultiPolygon",
        "coordinates": [
          [
            [
              [
                -81.37524100000074,
                40.79976299980718
              ],
              [
                -81.37539599981143,
                40.799343999804876
              ],
              [
                -81.37460099976813,
                40.79917899990103
              ],
              [
                -81.37435800009389,
                40.79913600031617
              ],
              [
                -81.37435300007103,
                40.79923900016078
              ],
              [
                -81.37435600044408,
                40.799360000157066
              ],
              [
                -81.37436899996455,
                40.79946599992758
              ],
              [
                -81.37423000004739,
                40.799851999752775
              ],
              [
                -81.37514999976413,
                40.80003700009065
              ],
              [
                -81.37524100000074,
                40.79976299980718
              ]
            ]
          ]
        ]
      },
      "properties": {
        "slug": "census-block-391517001002029",
        "geoid": "391517001002029",
        "name": "Block 2029",
        "districtSlug": "census-bg-391517001002",
        "sourceRefs": [
          "census-tigerweb-blocks-2026-09-13"
        ]
      }
    },
    {
      "type": "Feature",
      "geometry": {
        "type": "MultiPolygon",
        "coordinates": [
          [
            [
              [
                -81.37436899996455,
                40.79946599992758
              ],
              [
                -81.37435600044408,
                40.799360000157066
              ],
              [
                -81.37435300007103,
                40.79923900016078
              ],
              [
                -81.37435800009389,
                40.79913600031617
              ],
              [
                -81.37354499960894,
                40.79897099989524
              ],
              [
                -81.3733029997596,
                40.79966999984354
              ],
              [
                -81.37423000004739,
                40.799851999752775
              ],
              [
                -81.37436899996455,
                40.79946599992758
              ]
            ]
          ]
        ]
      },
      "properties": {
        "slug": "census-block-391517001002030",
        "geoid": "391517001002030",
        "name": "Block 2030",
        "districtSlug": "census-bg-391517001002",
        "sourceRefs": [
          "census-tigerweb-blocks-2026-09-13"
        ]
      }
    },
    {
      "type": "Feature",
      "geometry": {
        "type": "MultiPolygon",
        "coordinates": [
          [
            [
              [
                -81.37438900005603,
                40.79898000010188
              ],
              [
                -81.37458900007259,
                40.79841500032886
              ],
              [
                -81.37379900005216,
                40.798256999788265
              ],
              [
                -81.37376100041732,
                40.798378000214484
              ],
              [
                -81.37354499960894,
                40.79897099989524
              ],
              [
                -81.37435800009389,
                40.79913600031617
              ],
              [
                -81.37436200029185,
                40.79909399966679
              ],
              [
                -81.37438900005603,
                40.79898000010188
              ]
            ]
          ]
        ]
      },
      "properties": {
        "slug": "census-block-391517001002039",
        "geoid": "391517001002039",
        "name": "Block 2039",
        "districtSlug": "census-bg-391517001002",
        "sourceRefs": [
          "census-tigerweb-blocks-2026-09-13"
        ]
      }
    },
    {
      "type": "Feature",
      "geometry": {
        "type": "MultiPolygon",
        "coordinates": [
          [
            [
              [
                -81.37467500028632,
                40.79903799989306
              ],
              [
                -81.37487500030284,
                40.79847099994817
              ],
              [
                -81.37458900007259,
                40.79841500032886
              ],
              [
                -81.37438900005603,
                40.79898000010188
              ],
              [
                -81.37436200029185,
                40.79909399966679
              ],
              [
                -81.37435800009389,
                40.79913600031617
              ],
              [
                -81.37460099976813,
                40.79917899990103
              ],
              [
                -81.37467500028632,
                40.79903799989306
              ]
            ]
          ]
        ]
      },
      "properties": {
        "slug": "census-block-391517001002040",
        "geoid": "391517001002040",
        "name": "Block 2040",
        "districtSlug": "census-bg-391517001002",
        "sourceRefs": [
          "census-tigerweb-blocks-2026-09-13"
        ]
      }
    },
    {
      "type": "Feature",
      "geometry": {
        "type": "MultiPolygon",
        "coordinates": [
          [
            [
              [
                -81.37539599981143,
                40.799343999804876
              ],
              [
                -81.37565899957717,
                40.79863000030977
              ],
              [
                -81.37487500030284,
                40.79847099994817
              ],
              [
                -81.37467500028632,
                40.79903799989306
              ],
              [
                -81.37460099976813,
                40.79917899990103
              ],
              [
                -81.37539599981143,
                40.799343999804876
              ]
            ]
          ]
        ]
      },
      "properties": {
        "slug": "census-block-391517001002041",
        "geoid": "391517001002041",
        "name": "Block 2041",
        "districtSlug": "census-bg-391517001002",
        "sourceRefs": [
          "census-tigerweb-blocks-2026-09-13"
        ]
      }
    },
    {
      "type": "Feature",
      "geometry": {
        "type": "MultiPolygon",
        "coordinates": [
          [
            [
              [
                -81.37629200013707,
                40.799527000244815
              ],
              [
                -81.37654300020722,
                40.79880999969501
              ],
              [
                -81.37565899957717,
                40.79863000030977
              ],
              [
                -81.37539599981143,
                40.799343999804876
              ],
              [
                -81.37614499982398,
                40.79949999984376
              ],
              [
                -81.37629200013707,
                40.799527000244815
              ]
            ]
          ]
        ]
      },
      "properties": {
        "slug": "census-block-391517001002042",
        "geoid": "391517001002042",
        "name": "Block 2042",
        "districtSlug": "census-bg-391517001002",
        "sourceRefs": [
          "census-tigerweb-blocks-2026-09-13"
        ]
      }
    },
    {
      "type": "Feature",
      "geometry": {
        "type": "MultiPolygon",
        "coordinates": [
          [
            [
              [
                -81.37654300020722,
                40.79880999969501
              ],
              [
                -81.3767950001023,
                40.798095999896454
              ],
              [
                -81.3759060003477,
                40.797913000271706
              ],
              [
                -81.37578599979878,
                40.79824899981977
              ],
              [
                -81.37565899957717,
                40.79863000030977
              ],
              [
                -81.37654300020722,
                40.79880999969501
              ]
            ]
          ]
        ]
      },
      "properties": {
        "slug": "census-block-391517001002047",
        "geoid": "391517001002047",
        "name": "Block 2047",
        "districtSlug": "census-bg-391517001002",
        "sourceRefs": [
          "census-tigerweb-blocks-2026-09-13"
        ]
      }
    },
    {
      "type": "Feature",
      "geometry": {
        "type": "MultiPolygon",
        "coordinates": [
          [
            [
              [
                -81.37578599979878,
                40.79824899981977
              ],
              [
                -81.3759060003477,
                40.797913000271706
              ],
              [
                -81.37510000043375,
                40.79775000021836
              ],
              [
                -81.37509600023579,
                40.79781100007241
              ],
              [
                -81.3750760001443,
                40.797907000264345
              ],
              [
                -81.37487500030284,
                40.79847099994817
              ],
              [
                -81.37565899957717,
                40.79863000030977
              ],
              [
                -81.37578599979878,
                40.79824899981977
              ]
            ]
          ]
        ]
      },
      "properties": {
        "slug": "census-block-391517001002048",
        "geoid": "391517001002048",
        "name": "Block 2048",
        "districtSlug": "census-bg-391517001002",
        "sourceRefs": [
          "census-tigerweb-blocks-2026-09-13"
        ]
      }
    },
    {
      "type": "Feature",
      "geometry": {
        "type": "MultiPolygon",
        "coordinates": [
          [
            [
              [
                -81.37509600023579,
                40.79781100007241
              ],
              [
                -81.37510000043375,
                40.79775000021836
              ],
              [
                -81.37488000032572,
                40.797706000043604
              ],
              [
                -81.37482400024922,
                40.797776999971184
              ],
              [
                -81.37480499998266,
                40.79780900006698
              ],
              [
                -81.3747799998683,
                40.79786599985934
              ],
              [
                -81.37458900007259,
                40.79841500032886
              ],
              [
                -81.37487500030284,
                40.79847099994817
              ],
              [
                -81.3750760001443,
                40.797907000264345
              ],
              [
                -81.37509600023579,
                40.79781100007241
              ]
            ]
          ]
        ]
      },
      "properties": {
        "slug": "census-block-391517001002049",
        "geoid": "391517001002049",
        "name": "Block 2049",
        "districtSlug": "census-bg-391517001002",
        "sourceRefs": [
          "census-tigerweb-blocks-2026-09-13"
        ]
      }
    },
    {
      "type": "Feature",
      "geometry": {
        "type": "MultiPolygon",
        "coordinates": [
          [
            [
              [
                -81.37482400024922,
                40.797776999971184
              ],
              [
                -81.37488000032572,
                40.797706000043604
              ],
              [
                -81.37404699974927,
                40.797537999788005
              ],
              [
                -81.37383099983921,
                40.79814300014597
              ],
              [
                -81.37379900005216,
                40.798256999788265
              ],
              [
                -81.37458900007259,
                40.79841500032886
              ],
              [
                -81.3747799998683,
                40.79786599985934
              ],
              [
                -81.37480499998266,
                40.79780900006698
              ],
              [
                -81.37482400024922,
                40.797776999971184
              ]
            ]
          ]
        ]
      },
      "properties": {
        "slug": "census-block-391517001002050",
        "geoid": "391517001002050",
        "name": "Block 2050",
        "districtSlug": "census-bg-391517001002",
        "sourceRefs": [
          "census-tigerweb-blocks-2026-09-13"
        ]
      }
    },
    {
      "type": "Feature",
      "geometry": {
        "type": "MultiPolygon",
        "coordinates": [
          [
            [
              [
                -81.37608500044784,
                40.79742499993954
              ],
              [
                -81.37615499986971,
                40.79721800022986
              ],
              [
                -81.37529999955198,
                40.79704100031108
              ],
              [
                -81.37518599974915,
                40.79701999966697
              ],
              [
                -81.37514499974127,
                40.79713100017892
              ],
              [
                -81.37511600032725,
                40.797212000159625
              ],
              [
                -81.37497200038722,
                40.79755999993473
              ],
              [
                -81.37494499972473,
                40.79761299991822
              ],
              [
                -81.37488000032572,
                40.797706000043604
              ],
              [
                -81.37510000043375,
                40.79775000021836
              ],
              [
                -81.3759060003477,
                40.797913000271706
              ],
              [
                -81.37608500044784,
                40.79742499993954
              ]
            ]
          ]
        ]
      },
      "properties": {
        "slug": "census-block-391517001002060",
        "geoid": "391517001002060",
        "name": "Block 2060",
        "districtSlug": "census-bg-391517001002",
        "sourceRefs": [
          "census-tigerweb-blocks-2026-09-13"
        ]
      }
    },
    {
      "type": "Feature",
      "geometry": {
        "type": "MultiPolygon",
        "coordinates": [
          [
            [
              [
                -81.3767950001023,
                40.798095999896454
              ],
              [
                -81.37704299979943,
                40.79739100032067
              ],
              [
                -81.37659400026087,
                40.79730599983709
              ],
              [
                -81.37615499986971,
                40.79721800022986
              ],
              [
                -81.37608500044784,
                40.79742499993954
              ],
              [
                -81.3759060003477,
                40.797913000271706
              ],
              [
                -81.3767950001023,
                40.798095999896454
              ]
            ]
          ]
        ]
      },
      "properties": {
        "slug": "census-block-391517001002061",
        "geoid": "391517001002061",
        "name": "Block 2061",
        "districtSlug": "census-bg-391517001002",
        "sourceRefs": [
          "census-tigerweb-blocks-2026-09-13"
        ]
      }
    },
    {
      "type": "Feature",
      "geometry": {
        "type": "MultiPolygon",
        "coordinates": [
          [
            [
              [
                -81.37768300003202,
                40.79827400005816
              ],
              [
                -81.3779280002544,
                40.79757499969053
              ],
              [
                -81.37717199967085,
                40.797414999853416
              ],
              [
                -81.37704299979943,
                40.79739100032067
              ],
              [
                -81.3767950001023,
                40.798095999896454
              ],
              [
                -81.37768300003202,
                40.79827400005816
              ]
            ]
          ]
        ]
      },
      "properties": {
        "slug": "census-block-391517001002062",
        "geoid": "391517001002062",
        "name": "Block 2062",
        "districtSlug": "census-bg-391517001002",
        "sourceRefs": [
          "census-tigerweb-blocks-2026-09-13"
        ]
      }
    },
    {
      "type": "Feature",
      "geometry": {
        "type": "MultiPolygon",
        "coordinates": [
          [
            [
              [
                -81.37704299979943,
                40.79739100032067
              ],
              [
                -81.37728499964877,
                40.79670300005035
              ],
              [
                -81.3763940002443,
                40.79652400007442
              ],
              [
                -81.37629600033503,
                40.79680499991197
              ],
              [
                -81.37615499986971,
                40.79721800022986
              ],
              [
                -81.37659400026087,
                40.79730599983709
              ],
              [
                -81.37704299979943,
                40.79739100032067
              ]
            ]
          ]
        ]
      },
      "properties": {
        "slug": "census-block-391517001002066",
        "geoid": "391517001002066",
        "name": "Block 2066",
        "districtSlug": "census-bg-391517001002",
        "sourceRefs": [
          "census-tigerweb-blocks-2026-09-13"
        ]
      }
    }
  ]
}
