{
  "type": "FeatureCollection",
  "features": [
    {
      "type": "Feature",
      "geometry": {
        "type": "MultiPolygon",
        "coordinates": [
          [
            [
              [
                -81.37930200043091,
                40.79636700015789
              ],
              [
                -81.37953800043249,
                40.79569000019839
              ],
              [
                -81.37864999960445,
                40.79550599968424
              ],
              [
                -81.37776699969761,
                40.79532499980078
              ],
              [
                -81.37688299996586,
                40.795146000189696
              ],
              [
                -81.37595800022622,
                40.79496000011674
              ],
              [
                -81.37503299958827,
                40.79477400020271
              ],
              [
                -81.37412700011522,
                40.79459499978605
              ],
              [
                -81.37321999991893,
                40.794407999815576
              ],
              [
                -81.37240499978417,
                40.794254999880785
              ],
              [
                -81.37229000015641,
                40.794218000168044
              ],
              [
                -81.37201300014698,
                40.79415100006605
              ],
              [
                -81.37178999966592,
                40.79412400019867
              ],
              [
                -81.37169500012968,
                40.79412499991688
              ],
              [
                -81.37163300020539,
                40.7941349998185
              ],
              [
                -81.37152500025036,
                40.79417200025755
              ],
              [
                -81.37143200036394,
                40.79422500022558
              ],
              [
                -81.37139200018096,
                40.79426100021823
              ],
              [
                -81.37133899957921,
                40.794333000144945
              ],
              [
                -81.37131900038602,
                40.794371999902644
              ],
              [
                -81.37118799996647,
                40.794744000101936
              ],
              [
                -81.37095899963761,
                40.7954399999004
              ],
              [
                -81.37072299963606,
                40.79612699997068
              ],
              [
                -81.3704930003806,
                40.79682500026649
              ],
              [
                -81.37024999980804,
                40.79708300021923
              ],
              [
                -81.37027999994525,
                40.79721299983134
              ],
              [
                -81.37028699961797,
                40.797359000023384
              ],
              [
                -81.37023399991452,
                40.79753700012119
              ],
              [
                -81.37020899980016,
                40.79761899995216
              ],
              [
                -81.37000299993583,
                40.7982649997558
              ],
              [
                -81.36975799971344,
                40.79895599977484
              ],
              [
                -81.36953099993273,
                40.7996450001309
              ],
              [
                -81.3692899999083,
                40.80034700001549
              ],
              [
                -81.36905300008183,
                40.801031000102554
              ],
              [
                -81.36991000004942,
                40.80120399977621
              ],
              [
                -81.37079700015421,
                40.80137799996804
              ],
              [
                -81.37148500006738,
                40.80151800015852
              ],
              [
                -81.37167000001531,
                40.801551000097305
              ],
              [
                -81.37254799989928,
                40.801730999721705
              ],
              [
                -81.37351299982188,
                40.80192800023206
              ],
              [
                -81.37441900019327,
                40.80211399982173
              ],
              [
                -81.37530999959772,
                40.80229500023449
              ],
              [
                -81.37621900034213,
                40.802474000288754
              ],
              [
                -81.37626399964965,
                40.80248300002042
              ],
              [
                -81.37709999970085,
                40.80264799987118
              ],
              [
                -81.3773420004485,
                40.80195799980627
              ],
              [
                -81.3773990003499,
                40.80179000011193
              ],
              [
                -81.37758099992477,
                40.80126299995492
              ],
              [
                -81.37782500032225,
                40.800574999694334
              ],
              [
                -81.37800299969916,
                40.8000579997803
              ],
              [
                -81.37806600034666,
                40.79988800009418
              ],
              [
                -81.37832499991444,
                40.7991710000436
              ],
              [
                -81.3785759999846,
                40.79845399972868
              ],
              [
                -81.37881799983394,
                40.7977529998892
              ],
              [
                -81.37905899985836,
                40.797060000240485
              ],
              [
                -81.37930200043091,
                40.79636700015789
              ]
            ]
          ]
        ]
      },
      "properties": {
        "slug": "census-bg-391517001002",
        "geoid": "391517001002",
        "name": "Census Block Group 2",
        "sourceRefs": [
          "census-tigerweb-block-group-2026-09-13"
        ]
      }
    }
  ]
}
