{"features":[{"geometry":{"coordinates":[[[-81.36612399997884,40.83098400013571],[-81.36604000031325,40.832108999848195]],[[-81.36604000031325,40.832108999848195],[-81.36599299955927,40.832827999782374]],[[-81.36599299955927,40.832827999782374],[-81.36597400019102,40.83312400005895]],[[-81.36597400019102,40.83312400005895],[-81.36594200040395,40.833593999684304]],[[-81.36594200040395,40.833593999684304],[-81.36590600041895,40.83415099994279]],[[-81.36590600041895,40.83415099994279],[-81.36585299981718,40.83518599982404]],[[-81.36585299981718,40.83518599982404],[-81.36580099993864,40.83624600006363]],[[-81.36580099993864,40.83624600006363],[-81.36575099970995,40.83721500016694]],[[-81.36575099970995,40.83721500016694],[-81.36572399994576,40.83772400012084]],[[-81.36572399994576,40.83772400012084],[-81.36569499963345,40.8382820000739],[-81.36560400029515,40.84010900020075],[-81.36558599985351,40.84045800033184]],[[-81.36558599985351,40.84045800033184],[-81.36558000000572,40.840583999766075]],[[-81.36558000000572,40.840583999766075],[-81.36554200037088,40.8413579999677]],[[-81.36554200037088,40.8413579999677],[-81.36548499957115,40.84247599993292]],[[-81.36548499957115,40.84247599993292],[-81.3654240003701,40.84364800030923]],[[-81.3654240003701,40.84364800030923],[-81.36540500010354,40.84402499976234]],[[-81.36540500010354,40.84402499976234],[-81.36539199968473,40.84429599977488]],[[-81.36539199968473,40.84429599977488],[-81.36533399995842,40.84555900030697]],[[-81.36533399995842,40.84555900030697],[-81.36527299985904,40.84678799974422],[-81.36525600014062,40.847089999842474],[-81.36524699991978,40.84739199992347],[-81.36517300029993,40.84882299982358],[-81.36515099966032,40.849263999914356],[-81.36506299979678,40.85108799972069],[-81.36496099968953,40.85319699986245],[-81.36490600033625,40.85438999968476],[-81.36488299987172,40.85479800016009],[-81.36487899967376,40.85488100004414],[-81.3647830003126,40.856763999868726]],[[-81.3647830003126,40.856763999868726],[-81.36471899984018,40.85802699988198]],[[-81.36471899984018,40.85802699988198],[-81.3646929999009,40.85847700014771]],[[-81.3646929999009,40.85847700014771],[-81.36461799955785,40.86011300008136]]],"type":"MultiLineString"},"properties":{"BASENAME":"43","MTFCC":"S1200","NAME":"State Rte 43","OBJECTID":103071,"OID":"1101561189420","PREDIR":null,"PREDIRABRV":null,"PREQUAL":null,"PREQUALABRV":null,"PRETYP":586,"PRETYPEABRV":"State Rte","RTTYP":"S","SUFDIR":null,"SUFDIRABRV":null,"SUFQUAL":null,"SUFQUALABRV":null,"SUFTYP":null,"SUFTYPEABRV":null,"_gridCityId":"canton-oh","_gridSourceLayer":"secondary"},"type":"Feature"},{"geometry":{"coordinates":[[[-81.36619599994887,40.828694000029024],[-81.36621600004034,40.828236000305395]],[[-81.36622899956082,40.82777700024634],[-81.3662400003298,40.82744199987554]],[[-81.3662400003298,40.82744199987554],[-81.36625700004822,40.826908000192724],[-81.36627600031481,40.82681199980904],[-81.36630800010187,40.82672700030209]]],"type":"MultiLineString"},"properties":{"BASENAME":"43","MTFCC":"S1200","NAME":"State Rte 43","OBJECTID":103072,"OID":"1101561189421","PREDIR":null,"PREDIRABRV":null,"PREQUAL":null,"PREQUALABRV":null,"PRETYP":586,"PRETYPEABRV":"State Rte","RTTYP":"S","SUFDIR":null,"SUFDIRABRV":null,"SUFQUAL":null,"SUFQUALABRV":null,"SUFTYP":null,"SUFTYPEABRV":null,"_gridCityId":"canton-oh","_gridSourceLayer":"secondary"},"type":"Feature"},{"geometry":{"coordinates":[[[-81.36630800010187,40.82672700030209],[-81.36634200043703,40.82681299971463],[-81.36636199963021,40.82689799979106],[-81.36636800037631,40.82718999975147],[-81.36637400022408,40.82743900018721]],[[-81.36637400022408,40.82743900018721],[-81.3663900001176,40.82793800018157]],[[-81.3663900001176,40.82793800018157],[-81.36638900029271,40.82840100001234]],[[-81.36638900029271,40.82840100001234],[-81.36637099985106,40.8290930001366]],[[-81.36637099985106,40.8290930001366],[-81.36636599982818,40.829240000071906]],[[-81.36636599982818,40.829240000071906],[-81.36635800033058,40.82950100002793]],[[-81.36635800033058,40.82950100002793],[-81.36635199958448,40.82970800031734]],[[-81.36635199958448,40.82970800031734],[-81.36633400004112,40.83003599975802]],[[-81.36633400004112,40.83003599975802],[-81.3663180001476,40.83022700003389]],[[-81.3663180001476,40.83022700003389],[-81.36626999956871,40.83051100013148]],[[-81.36626999956871,40.83051100013148],[-81.36620799964442,40.83085099985473]],[[-81.36620799964442,40.83085099985473],[-81.36618099988024,40.83091100002473]],[[-81.36618099988024,40.83091100002473],[-81.36612399997884,40.83098400013571]]],"type":"MultiLineString"},"properties":{"BASENAME":"43","MTFCC":"S1200","NAME":"State Rte 43","OBJECTID":103073,"OID":"1101561189422","PREDIR":null,"PREDIRABRV":null,"PREQUAL":null,"PREQUALABRV":null,"PRETYP":586,"PRETYPEABRV":"State Rte","RTTYP":"S","SUFDIR":null,"SUFDIRABRV":null,"SUFQUAL":null,"SUFQUALABRV":null,"SUFTYP":null,"SUFTYPEABRV":null,"_gridCityId":"canton-oh","_gridSourceLayer":"secondary"},"type":"Feature"},{"geometry":{"coordinates":[[-81.36793400017345,40.81942100026807],[-81.36762299982882,40.820347000052415],[-81.36686399977056,40.82256600032646],[-81.36683399963331,40.822650999728204],[-81.36663899963965,40.823221000299654],[-81.36653999990544,40.82353000005372],[-81.36649700024773,40.823679999943295],[-81.36645700006478,40.823888999948885],[-81.36643899962311,40.82409099966988],[-81.36643500032346,40.824161999920335],[-81.36639500014049,40.824887999919376],[-81.36634900010974,40.82575600001104],[-81.36634400008685,40.82586500020328],[-81.36630800010187,40.82672700030209]],"type":"LineString"},"properties":{"BASENAME":"43","MTFCC":"S1200","NAME":"State Rte 43","OBJECTID":103074,"OID":"1101561189423","PREDIR":null,"PREDIRABRV":null,"PREQUAL":null,"PREQUALABRV":null,"PRETYP":586,"PRETYPEABRV":"State Rte","RTTYP":"S","SUFDIR":null,"SUFDIRABRV":null,"SUFQUAL":null,"SUFQUALABRV":null,"SUFTYP":null,"SUFTYPEABRV":null,"_gridCityId":"canton-oh","_gridSourceLayer":"secondary"},"type":"Feature"},{"geometry":{"coordinates":[[-81.34941899992225,40.788197999846076],[-81.34934899960207,40.78805000029288],[-81.34932600003584,40.78800299969943],[-81.349252000416,40.78785300008638],[-81.34897799988128,40.787297999728246],[-81.34886800027644,40.787101000011425],[-81.34873100000908,40.786889000264104],[-81.34855899958163,40.78665000033415],[-81.3482670004019,40.78620900004968],[-81.34791599987432,40.78574399989533],[-81.34790400017874,40.785722999758875]],"type":"LineString"},"properties":{"BASENAME":"43","MTFCC":"S1200","NAME":"State Rte 43","OBJECTID":103075,"OID":"1101561189424","PREDIR":null,"PREDIRABRV":null,"PREQUAL":null,"PREQUALABRV":null,"PRETYP":586,"PRETYPEABRV":"State Rte","RTTYP":"S","SUFDIR":null,"SUFDIRABRV":null,"SUFQUAL":null,"SUFQUALABRV":null,"SUFTYP":null,"SUFTYPEABRV":null,"_gridCityId":"canton-oh","_gridSourceLayer":"secondary"},"type":"Feature"},{"geometry":{"coordinates":[[-81.37239100043875,40.79433800008031],[-81.37240399995925,40.794471000126315],[-81.3724020003094,40.794666000320646],[-81.37241300018007,40.79482100008393],[-81.37243200044665,40.79495399984243],[-81.37244999999,40.79502599969768],[-81.3724580003859,40.79505700005529],[-81.3724929996477,40.795164000278824],[-81.37253200000576,40.795258999836996],[-81.37258800008226,40.795372999671415],[-81.37265900022737,40.79549800006429],[-81.37288000016031,40.7958650002549],[-81.37313000040555,40.796279999671754],[-81.3732180002691,40.796444000297626],[-81.3732530004292,40.79652800016271],[-81.37328000019339,40.79664199985823],[-81.37329500026199,40.796789999982195],[-81.37329199988895,40.79705099977353],[-81.37317899991105,40.797361999711846],[-81.37292500036615,40.79807900026097],[-81.37266500007516,40.79879700019405],[-81.37241900002786,40.79949399997984],[-81.3721760003536,40.800178000016565],[-81.37192799975819,40.80088100000088],[-81.37173199993958,40.80140500028516],[-81.37167000001531,40.801551000097305],[-81.37142399996802,40.80222399969938],[-81.37131900038602,40.802519999886606],[-81.37120999970777,40.80282400021185],[-81.37110299957764,40.80312200028871],[-81.37055399958166,40.80462999988428],[-81.3704930003806,40.804817999855835],[-81.37044899999968,40.80498400025606],[-81.37024200031044,40.80608199994305],[-81.37018299986089,40.80639099997918],[-81.37012099993662,40.8067110001922],[-81.37005800018741,40.80703400015355],[-81.36998700004231,40.80740499991214],[-81.36994000018665,40.80765600021835],[-81.36976600010937,40.80855999978732],[-81.36965999980416,40.80908600030427],[-81.36958299981127,40.809527999745846],[-81.36956600009283,40.80961700019565],[-81.36949800032076,40.809982000195845],[-81.36940600025926,40.810471000147096],[-81.36935799968037,40.81077600023427],[-81.36931199964963,40.81113700009059],[-81.36919000034919,40.81249799976707],[-81.36916699988467,40.81285399987279],[-81.36917199990752,40.81299099998895],[-81.36919000034919,40.813127999822164],[-81.36921999958811,40.81326299983268],[-81.36925899994617,40.81339700014061],[-81.36929499993118,40.81348999990601],[-81.36930900017488,40.81352799986034],[-81.36937000027424,40.81365300005759],[-81.36941700012991,40.813735999797366],[-81.36953900032866,40.81389099990172],[-81.36980000044456,40.81418400011419],[-81.36988599975996,40.81429900017344],[-81.3699379996385,40.814394000219856],[-81.36997699999657,40.81449399990704],[-81.37001700017954,40.81462500018022],[-81.37002999970002,40.81468199980835],[-81.36981899981282,40.81505499980386],[-81.36922700015911,40.816103000161625],[-81.36915900038706,40.81622500007071],[-81.36899000033264,40.81653000022155],[-81.36887700035474,40.81674499998678],[-81.36883399979872,40.8168409999858],[-81.36833400020653,40.818276000124406],[-81.36811900012138,40.81889300005449],[-81.36793400017345,40.81942100026807]],"type":"LineString"},"properties":{"BASENAME":"43","MTFCC":"S1200","NAME":"State Rte 43","OBJECTID":100296,"OID":"1101561189428","PREDIR":null,"PREDIRABRV":null,"PREQUAL":null,"PREQUALABRV":null,"PRETYP":586,"PRETYPEABRV":"State Rte","RTTYP":"S","SUFDIR":null,"SUFDIRABRV":null,"SUFQUAL":null,"SUFQUALABRV":null,"SUFTYP":null,"SUFTYPEABRV":null,"_gridCityId":"canton-oh","_gridSourceLayer":"secondary"},"type":"Feature"},{"geometry":{"coordinates":[[[-81.35184099986206,40.83054600030345],[-81.35178399996065,40.83054600030345]],[[-81.35178399996065,40.83054600030345],[-81.35162699960182,40.83054800000202]],[[-81.35162699960182,40.83054800000202],[-81.35109400039767,40.83057099992949]],[[-81.35109400039767,40.83057099992949],[-81.35050600004361,40.830603999693245],[-81.35034100018716,40.83061699976048],[-81.35024199955464,40.83062499990515],[-81.3502109995925,40.830627000281005],[-81.35012299972895,40.83063600027241]]],"type":"MultiLineString"},"properties":{"BASENAME":"62","MTFCC":"S1200","NAME":"US Hwy 62","OBJECTID":100303,"OID":"1101561189640","PREDIR":null,"PREDIRABRV":null,"PREQUAL":null,"PREQUALABRV":null,"PRETYP":640,"PRETYPEABRV":"US Hwy","RTTYP":"U","SUFDIR":null,"SUFDIRABRV":null,"SUFQUAL":null,"SUFQUALABRV":null,"SUFTYP":null,"SUFTYPEABRV":null,"_gridCityId":"canton-oh","_gridSourceLayer":"secondary"},"type":"Feature"},{"geometry":{"coordinates":[[-81.35183599983918,40.83071600029329],[-81.35178399996065,40.83071799998668],[-81.35141099969175,40.830735999943535],[-81.3508220004111,40.83077599990573],[-81.35031900044584,40.83081900005908],[-81.35022300018639,40.83082700017934],[-81.3501760003307,40.83083100023912],[-81.35010500018561,40.83083799983342]],"type":"LineString"},"properties":{"BASENAME":"62","MTFCC":"S1200","NAME":"US Hwy 62","OBJECTID":100304,"OID":"1101561189641","PREDIR":null,"PREDIRABRV":null,"PREQUAL":null,"PREQUALABRV":null,"PRETYP":640,"PRETYPEABRV":"US Hwy","RTTYP":"U","SUFDIR":null,"SUFDIRABRV":null,"SUFQUAL":null,"SUFQUALABRV":null,"SUFTYP":null,"SUFTYPEABRV":null,"_gridCityId":"canton-oh","_gridSourceLayer":"secondary"},"type":"Feature"},{"geometry":{"coordinates":[[-81.33989900039255,40.83395499974723],[-81.33980099958492,40.83398899966319],[-81.33920200025854,40.834186000232286],[-81.33854299975938,40.83439099990623],[-81.33777000035569,40.83461999997612],[-81.3372129999638,40.83477600000111],[-81.33642700014133,40.834983000134145],[-81.33569400002231,40.83516199967883],[-81.33490099962884,40.835347999897344],[-81.33393200040659,40.83556100028492],[-81.32953399969252,40.83649400003524],[-81.32765099970295,40.83689899998105],[-81.32715600013364,40.83700200033613],[-81.32502200007391,40.83744800033714],[-81.32159699967838,40.838180000082495],[-81.32051100028026,40.83840699983594],[-81.3173529998484,40.83907899966584],[-81.31400100014608,40.8397939999282],[-81.31309200029997,40.83999899993045],[-81.31246999961073,40.84014800024038],[-81.31173999986477,40.84033499976313],[-81.31095800024028,40.84054499998297],[-81.31034700032,40.84071799992636],[-81.31023299961885,40.84075300014676],[-81.30974200024748,40.840902999814055],[-81.30908299974833,40.84110999984406],[-81.30782599974766,40.84150800030466],[-81.30753399966963,40.841601999753784],[-81.30750699990544,40.841611000294115],[-81.30529900022589,40.84232300005337],[-81.30523300010363,40.84234399995113]],"type":"LineString"},"properties":{"BASENAME":"62","MTFCC":"S1200","NAME":"US Hwy 62","OBJECTID":100305,"OID":"1101561189644","PREDIR":null,"PREDIRABRV":null,"PREQUAL":null,"PREQUALABRV":null,"PRETYP":640,"PRETYPEABRV":"US Hwy","RTTYP":"U","SUFDIR":null,"SUFDIRABRV":null,"SUFQUAL":null,"SUFQUALABRV":null,"SUFTYP":null,"SUFTYPEABRV":null,"_gridCityId":"canton-oh","_gridSourceLayer":"secondary"},"type":"Feature"},{"geometry":{"coordinates":[[[-81.36965999980416,40.80908600030427],[-81.36917399955736,40.80906699973771],[-81.36878699994307,40.809062000231876],[-81.36801799983905,40.809043999831914],[-81.36785499963243,40.809043999831914],[-81.36626000042126,40.80900200001286],[-81.36469100025109,40.8089630000114],[-81.3631720003096,40.80892699983281],[-81.36282300033017,40.808921000141126],[-81.36157300000218,40.80888899996304],[-81.36084400008114,40.80887199969221],[-81.36051299964504,40.80886300014698],[-81.36010699976417,40.80885299974431],[-81.35998700011356,40.80884899971882],[-81.35863300002853,40.80882299988709],[-81.35809200042847,40.80880399992511],[-81.35746300006652,40.808779000253224],[-81.35724700015645,40.80877000001549],[-81.35579599998704,40.808711999889354],[-81.35458599984206,40.808662999966096],[-81.35321400021365,40.8086099999667],[-81.352498999638,40.8085880000828],[-81.35212700009232,40.8085700002342],[-81.35163099979978,40.80854700015609],[-81.35145099987473,40.80854400029315],[-81.35133500042208,40.80855000001893],[-81.35126799957662,40.808562000148804],[-81.35117700023832,40.808584000041336],[-81.3509360002139,40.808680999789466],[-81.35091100009956,40.80869199971689],[-81.35067900029597,40.80879099966174],[-81.34963499983232,40.809201999851986],[-81.34902700028509,40.80945599998216],[-81.34857899967314,40.809637000089324],[-81.34824099956433,40.80977500021117],[-81.34800200008804,40.80987200025812],[-81.34757199991773,40.81004700032053],[-81.34692300036262,40.81031100012035],[-81.34588499974677,40.810736999915626],[-81.34547399984302,40.81090200032247],[-81.34462299972323,40.81124499969038],[-81.343578000333,40.811671000288236],[-81.34325699994262,40.811802000016364],[-81.34231399976134,40.81218099996344],[-81.34123000001303,40.81262399998468],[-81.34079499981986,40.81279599991707],[-81.34016899983096,40.81305100000033],[-81.33954799986495,40.81331100032928],[-81.33921099958107,40.813443000325975],[-81.33770300040854,40.81402200000584],[-81.33734299966014,40.81415800033326],[-81.33664899989917,40.814421000000664],[-81.33603100030619,40.81465500013375],[-81.33547499973919,40.81486400002259],[-81.33494599983469,40.815069000282314],[-81.33453099973298,40.81524099999494],[-81.3336520000241,40.81561899993892],[-81.33243299965828,40.8161389998461],[-81.33169000039184,40.8164469998981],[-81.33111200008354,40.81669200032438],[-81.33075300005834,40.81683300021778],[-81.33024000004734,40.81705800020811],[-81.32988699986993,40.81722199980176],[-81.32944300035423,40.81743900013747],[-81.32900599961292,40.817646000006036],[-81.32837100030149,40.817948999663805],[-81.3282099997447,40.81803100010952],[-81.32794799980388,40.81816300023276],[-81.32734500027952,40.81844799968029],[-81.32678799988761,40.81871200004402],[-81.32628599974727,40.818951000118616],[-81.32592199969919,40.81912500000676],[-81.32519500032629,40.819469999724575],[-81.32510099971665,40.81951399974677],[-81.32398699983113,40.820019000275614],[-81.32299799961908,40.82046800031288],[-81.32288200016642,40.82052099967764],[-81.32204799976508,40.82090000012188],[-81.32191700024383,40.82095899978455],[-81.32152200023363,40.82113799979968],[-81.32083500014535,40.821449999700434],[-81.3206769999616,40.82152500000033],[-81.31972299990964,40.82193600016509],[-81.31836399980176,40.82251899969878],[-81.31822300023475,40.82258199983832],[-81.31765800034522,40.822842000201874]],[[-81.3173899996583,40.822964999916735],[-81.31698700015049,40.8231520003229]],[[-81.31698700015049,40.8231520003229],[-81.31689199971593,40.82319599994202]],[[-81.31689199971593,40.82319599994202],[-81.31619499958194,40.823517999911964]],[[-81.31619499958194,40.823517999911964],[-81.3153810001704,40.82388700004951]],[[-81.3153810001704,40.82388700004951],[-81.31510900018381,40.824005000126334]]],"type":"MultiLineString"},"properties":{"BASENAME":"153","MTFCC":"S1200","NAME":"State Rte 153","OBJECTID":100484,"OID":"1101561190340","PREDIR":null,"PREDIRABRV":null,"PREQUAL":null,"PREQUALABRV":null,"PRETYP":586,"PRETYPEABRV":"State Rte","RTTYP":"S","SUFDIR":null,"SUFDIRABRV":null,"SUFQUAL":null,"SUFQUALABRV":null,"SUFTYP":null,"SUFTYPEABRV":null,"_gridCityId":"canton-oh","_gridSourceLayer":"secondary"},"type":"Feature"},{"geometry":{"coordinates":[[[-81.3985549999257,40.799641000230395],[-81.39874499989648,40.799615000191274],[-81.39893599969218,40.79959100009378],[-81.39942100011409,40.799533000105754],[-81.40027100040896,40.799433000312256],[-81.40069800020622,40.79938300001897],[-81.40088800017703,40.79936099979643],[-81.40166899997662,40.79926900027034],[-81.40216100007122,40.79921100000096],[-81.40264499976986,40.79915500032593],[-81.40343800016336,40.79906299983435],[-81.40379800001347,40.79902099981882],[-81.40471100005753,40.79891500001774],[-81.40551000029879,40.79882200022605],[-81.40658099962828,40.79869699997177],[-81.40696399994293,40.7986520000946],[-81.407588000282,40.79857800010941],[-81.40812300003431,40.79851500029591],[-81.40838999999798,40.79848400019303],[-81.4091649999498,40.79839299978545],[-81.4093409996769,40.798372000249095],[-81.4099189999852,40.79830199993317],[-81.4100179997194,40.79828999998822],[-81.41073699959472,40.79820499997572],[-81.41113099978003,40.79815900010755],[-81.412228999772,40.7980290003079],[-81.41325499979398,40.79790599992303],[-81.4144940002513,40.797756000239964],[-81.41569699982527,40.797616000275255],[-81.4169310002597,40.79746799995269],[-81.41759400005851,40.79738599993518],[-81.41811600029035,40.79732200000042],[-81.41918699961984,40.79719700032181],[-81.41940599990296,40.79717199967776],[-81.42038400024435,40.79705099977353],[-81.42069300004083,40.79701400025896],[-81.42148300006127,40.79691899981188],[-81.42199600007224,40.79685799981819],[-81.42405200031415,40.796611000240794],[-81.42503800015315,40.796489000311446],[-81.42634000035966,40.79632800021199]],[[-81.42699599958746,40.79624499978013],[-81.42751399962131,40.796185999901624]]],"type":"MultiLineString"},"properties":{"BASENAME":"172","MTFCC":"S1200","NAME":"State Rte 172","OBJECTID":100485,"OID":"1101561190504","PREDIR":null,"PREDIRABRV":null,"PREQUAL":null,"PREQUALABRV":null,"PRETYP":586,"PRETYPEABRV":"State Rte","RTTYP":"S","SUFDIR":null,"SUFDIRABRV":null,"SUFQUAL":null,"SUFQUALABRV":null,"SUFTYP":null,"SUFTYPEABRV":null,"_gridCityId":"canton-oh","_gridSourceLayer":"secondary"},"type":"Feature"},{"geometry":{"coordinates":[[-81.39640300032264,40.79992899993027],[-81.39649899968379,40.79988800009418],[-81.39658999992037,40.79986200015181],[-81.39679300030997,40.799830999997944],[-81.39744799971285,40.799730999973356],[-81.39766899964579,40.79970100007259],[-81.398063999656,40.79964599976598],[-81.39837199962759,40.79961199992454],[-81.39843699992491,40.79961199992454],[-81.39849300000141,40.79962100004426],[-81.3985549999257,40.799641000230395]],"type":"LineString"},"properties":{"BASENAME":"172","MTFCC":"S1200","NAME":"State Rte 172","OBJECTID":100486,"OID":"1101561190505","PREDIR":null,"PREDIRABRV":null,"PREQUAL":null,"PREQUALABRV":null,"PRETYP":586,"PRETYPEABRV":"State Rte","RTTYP":"S","SUFDIR":null,"SUFDIRABRV":null,"SUFQUAL":null,"SUFQUALABRV":null,"SUFTYP":null,"SUFTYPEABRV":null,"_gridCityId":"canton-oh","_gridSourceLayer":"secondary"},"type":"Feature"},{"geometry":{"coordinates":[[-81.39640300032264,40.79992899993027],[-81.39657200037703,40.79994900002361],[-81.39662599990538,40.79994900002361],[-81.39674100043142,40.799939000317714],[-81.39692300000631,40.799912000084234],[-81.39766699999598,40.79980500003325],[-81.39772200024755,40.79979799988404],[-81.39839799956685,40.79971299976252],[-81.39844500032082,40.79969999975831],[-81.39848799997854,40.799680000269994],[-81.3985549999257,40.799641000230395]],"type":"LineString"},"properties":{"BASENAME":"172","MTFCC":"S1200","NAME":"State Rte 172","OBJECTID":100487,"OID":"1101561190506","PREDIR":null,"PREDIRABRV":null,"PREQUAL":null,"PREQUALABRV":null,"PRETYP":586,"PRETYPEABRV":"State Rte","RTTYP":"S","SUFDIR":null,"SUFDIRABRV":null,"SUFQUAL":null,"SUFQUALABRV":null,"SUFTYP":null,"SUFTYPEABRV":null,"_gridCityId":"canton-oh","_gridSourceLayer":"secondary"},"type":"Feature"},{"geometry":{"coordinates":[[[-81.40534600026724,40.75103000018046],[-81.40573999955424,40.75104100013167],[-81.40646500017564,40.75106099997652],[-81.4091449998583,40.751151999909105],[-81.40955099973917,40.751166000254116],[-81.40971499977071,40.751169999671596],[-81.40983699996944,40.75117300008525],[-81.41031599964523,40.75118600006131],[-81.41403099957071,40.75130600013943],[-81.41547400024251,40.75135300015635]],[[-81.41547400024251,40.75135300015635],[-81.4174869999284,40.75141799983543]],[[-81.4174869999284,40.75141799983543],[-81.41764400028724,40.75142300027927],[-81.41950899983512,40.75148300013151],[-81.42197599998076,40.751566000019345],[-81.42314199974483,40.75160299967363],[-81.42331199962413,40.7516080001035],[-81.42439799992056,40.751642000022585],[-81.42493799969573,40.751660000332954],[-81.42686500006621,40.75172400003607],[-81.4269699996482,40.75172699974416],[-81.42731600015291,40.751738000260644],[-81.42750500029881,40.75174399967547]],[[-81.42750500029881,40.75174399967547],[-81.42788400041549,40.75175700022041]],[[-81.42788400041549,40.75175700022041],[-81.42853600034364,40.75178099991119]],[[-81.42853600034364,40.75178099991119],[-81.42882900024662,40.7517910000633]]],"type":"MultiLineString"},"properties":{"BASENAME":"627","MTFCC":"S1200","NAME":"State Rte 627","OBJECTID":100666,"OID":"1101561193386","PREDIR":null,"PREDIRABRV":null,"PREQUAL":null,"PREQUALABRV":null,"PRETYP":586,"PRETYPEABRV":"State Rte","RTTYP":"S","SUFDIR":null,"SUFDIRABRV":null,"SUFQUAL":null,"SUFQUALABRV":null,"SUFTYP":null,"SUFTYPEABRV":null,"_gridCityId":"canton-oh","_gridSourceLayer":"secondary"},"type":"Feature"},{"geometry":{"coordinates":[[-81.38678800035835,40.77136200003911],[-81.38638199957919,40.770877000031504],[-81.38576999983398,40.770142999670874],[-81.38546400041055,40.76978599967808],[-81.38537200034904,40.76969199982216],[-81.3852490003254,40.769571000188186],[-81.38509299979147,40.76943599975742],[-81.38406099992172,40.76860600025418],[-81.38363699959919,40.768262000206605],[-81.38344300032875,40.76809400029566],[-81.38328099994703,40.767941000286584]],"type":"LineString"},"properties":{"BASENAME":"800","MTFCC":"S1200","NAME":"State Rte 800","OBJECTID":100667,"OID":"1101561193937","PREDIR":null,"PREDIRABRV":null,"PREQUAL":null,"PREQUALABRV":null,"PRETYP":586,"PRETYPEABRV":"State Rte","RTTYP":"S","SUFDIR":null,"SUFDIRABRV":null,"SUFQUAL":null,"SUFQUALABRV":null,"SUFTYP":null,"SUFTYPEABRV":null,"_gridCityId":"canton-oh","_gridSourceLayer":"secondary"},"type":"Feature"},{"geometry":{"coordinates":[[-81.38804700000883,40.77300100002707],[-81.3879109995664,40.77279499972929],[-81.38787100028173,40.77274000026499],[-81.38782400042608,40.77267499966437],[-81.3876700004403,40.77248300033419],[-81.38686700000109,40.77152300012308],[-81.38681099992456,40.771420000143884],[-81.38678800035835,40.77136200003911]],"type":"LineString"},"properties":{"BASENAME":"800","MTFCC":"S1200","NAME":"State Rte 800","OBJECTID":100668,"OID":"1101561193938","PREDIR":null,"PREDIRABRV":null,"PREQUAL":null,"PREQUALABRV":null,"PRETYP":586,"PRETYPEABRV":"State Rte","RTTYP":"S","SUFDIR":null,"SUFDIRABRV":null,"SUFQUAL":null,"SUFQUALABRV":null,"SUFTYP":null,"SUFTYPEABRV":null,"_gridCityId":"canton-oh","_gridSourceLayer":"secondary"},"type":"Feature"},{"geometry":{"coordinates":[[-81.38813800024543,40.772937999756095],[-81.38800400035113,40.77273099990304],[-81.38795900014529,40.772672000221185],[-81.38786200006089,40.77254400027011],[-81.38767799993789,40.772320999808734],[-81.38696499991036,40.77147500002054],[-81.38685600013042,40.771396000059745],[-81.38678800035835,40.77136200003911]],"type":"LineString"},"properties":{"BASENAME":"800","MTFCC":"S1200","NAME":"State Rte 800","OBJECTID":100669,"OID":"1101561193939","PREDIR":null,"PREDIRABRV":null,"PREQUAL":null,"PREQUALABRV":null,"PRETYP":586,"PRETYPEABRV":"State Rte","RTTYP":"S","SUFDIR":null,"SUFDIRABRV":null,"SUFQUAL":null,"SUFQUALABRV":null,"SUFTYP":null,"SUFTYPEABRV":null,"_gridCityId":"canton-oh","_gridSourceLayer":"secondary"},"type":"Feature"},{"geometry":{"coordinates":[[-81.32020099976054,40.78915400000566],[-81.32022699969981,40.78873900025452],[-81.32023500009572,40.7886140000589],[-81.32027199990566,40.78806100023888],[-81.32031100026371,40.787341999999455],[-81.32037900003576,40.78628199970215],[-81.32038900008153,40.786116000143224],[-81.32047699994507,40.78468499979837],[-81.320521000326,40.78392899973255],[-81.3205420002424,40.78357300023375]],"type":"LineString"},"properties":{"BASENAME":"Trump","MTFCC":"S1200","NAME":"Trump Ave SE","OBJECTID":101059,"OID":"1101561202912","PREDIR":null,"PREDIRABRV":null,"PREQUAL":null,"PREQUALABRV":null,"PRETYP":null,"PRETYPEABRV":null,"RTTYP":"M","SUFDIR":17,"SUFDIRABRV":"SE","SUFQUAL":null,"SUFQUALABRV":null,"SUFTYP":125,"SUFTYPEABRV":"Ave","_gridCityId":"canton-oh","_gridSourceLayer":"secondary"},"type":"Feature"},{"geometry":{"coordinates":[[-81.37329199988895,40.79705099977353],[-81.37329500026199,40.796789999982195],[-81.37328000019339,40.79664199985823],[-81.3732530004292,40.79652800016271],[-81.3732180002691,40.796444000297626],[-81.37313000040555,40.796279999671754],[-81.37288000016031,40.7958650002549],[-81.37265900022737,40.79549800006429],[-81.37258800008226,40.795372999671415],[-81.37253200000576,40.795258999836996],[-81.3724929996477,40.795164000278824],[-81.3724580003859,40.79505700005529],[-81.37244999999,40.79502599969768],[-81.37243200044665,40.79495399984243],[-81.37241300018007,40.79482100008393],[-81.3724020003094,40.794666000320646],[-81.37240399995925,40.794471000126315],[-81.37239100043875,40.79433800008031]],"type":"LineString"},"properties":{"BASENAME":"Cherry","MTFCC":"S1200","NAME":"Cherry Ave SE","OBJECTID":101260,"OID":"1101561203655","PREDIR":null,"PREDIRABRV":null,"PREQUAL":null,"PREQUALABRV":null,"PRETYP":null,"PRETYPEABRV":null,"RTTYP":"M","SUFDIR":17,"SUFDIRABRV":"SE","SUFQUAL":null,"SUFQUALABRV":null,"SUFTYP":125,"SUFTYPEABRV":"Ave","_gridCityId":"canton-oh","_gridSourceLayer":"secondary"},"type":"Feature"},{"geometry":{"coordinates":[[[-81.36630800010187,40.82672700030209],[-81.36634200043703,40.82681299971463],[-81.36636199963021,40.82689799979106],[-81.36636800037631,40.82718999975147],[-81.36637400022408,40.82743900018721]],[[-81.36637400022408,40.82743900018721],[-81.3663900001176,40.82793800018157]],[[-81.3663900001176,40.82793800018157],[-81.36638900029271,40.82840100001234]],[[-81.36638900029271,40.82840100001234],[-81.36637099985106,40.8290930001366]],[[-81.36637099985106,40.8290930001366],[-81.36636599982818,40.829240000071906]],[[-81.36636599982818,40.829240000071906],[-81.36635800033058,40.82950100002793]],[[-81.36635800033058,40.82950100002793],[-81.36635199958448,40.82970800031734]],[[-81.36635199958448,40.82970800031734],[-81.36633400004112,40.83003599975802]],[[-81.36633400004112,40.83003599975802],[-81.3663180001476,40.83022700003389]],[[-81.3663180001476,40.83022700003389],[-81.36626999956871,40.83051100013148]],[[-81.36626999956871,40.83051100013148],[-81.36620799964442,40.83085099985473]],[[-81.36620799964442,40.83085099985473],[-81.36618099988024,40.83091100002473]],[[-81.36618099988024,40.83091100002473],[-81.36612399997884,40.83098400013571]]],"type":"MultiLineString"},"properties":{"BASENAME":"Market","MTFCC":"S1200","NAME":"Market Ave N","OBJECTID":101266,"OID":"1101561204649","PREDIR":null,"PREDIRABRV":null,"PREQUAL":null,"PREQUALABRV":null,"PRETYP":null,"PRETYPEABRV":null,"RTTYP":"M","SUFDIR":11,"SUFDIRABRV":"N","SUFQUAL":null,"SUFQUALABRV":null,"SUFTYP":125,"SUFTYPEABRV":"Ave","_gridCityId":"canton-oh","_gridSourceLayer":"secondary"},"type":"Feature"},{"geometry":{"coordinates":[[[-81.36619599994887,40.828694000029024],[-81.36621600004034,40.828236000305395]],[[-81.36622899956082,40.82777700024634],[-81.3662400003298,40.82744199987554]],[[-81.3662400003298,40.82744199987554],[-81.36625700004822,40.826908000192724],[-81.36627600031481,40.82681199980904],[-81.36630800010187,40.82672700030209]]],"type":"MultiLineString"},"properties":{"BASENAME":"Market","MTFCC":"S1200","NAME":"Market Ave N","OBJECTID":101267,"OID":"1101561204650","PREDIR":null,"PREDIRABRV":null,"PREQUAL":null,"PREQUALABRV":null,"PRETYP":null,"PRETYPEABRV":null,"RTTYP":"M","SUFDIR":11,"SUFDIRABRV":"N","SUFQUAL":null,"SUFQUALABRV":null,"SUFTYP":125,"SUFTYPEABRV":"Ave","_gridCityId":"canton-oh","_gridSourceLayer":"secondary"},"type":"Feature"},{"geometry":{"coordinates":[[-81.37002999970002,40.81468199980835],[-81.36981899981282,40.81505499980386],[-81.36922700015911,40.816103000161625],[-81.36915900038706,40.81622500007071],[-81.36899000033264,40.81653000022155],[-81.36887700035474,40.81674499998678],[-81.36883399979872,40.8168409999858],[-81.36833400020653,40.818276000124406],[-81.36811900012138,40.81889300005449],[-81.36793400017345,40.81942100026807],[-81.36762299982882,40.820347000052415],[-81.36686399977056,40.82256600032646],[-81.36683399963331,40.822650999728204],[-81.36663899963965,40.823221000299654],[-81.36653999990544,40.82353000005372],[-81.36649700024773,40.823679999943295],[-81.36645700006478,40.823888999948885],[-81.36643899962311,40.82409099966988],[-81.36643500032346,40.824161999920335],[-81.36639500014049,40.824887999919376],[-81.36634900010974,40.82575600001104],[-81.36634400008685,40.82586500020328],[-81.36630800010187,40.82672700030209]],"type":"LineString"},"properties":{"BASENAME":"Market","MTFCC":"S1200","NAME":"Market Ave N","OBJECTID":101481,"OID":"1101561204651","PREDIR":null,"PREDIRABRV":null,"PREQUAL":null,"PREQUALABRV":null,"PRETYP":null,"PRETYPEABRV":null,"RTTYP":"M","SUFDIR":11,"SUFDIRABRV":"N","SUFQUAL":null,"SUFQUALABRV":null,"SUFTYP":125,"SUFTYPEABRV":"Ave","_gridCityId":"canton-oh","_gridSourceLayer":"secondary"},"type":"Feature"},{"geometry":{"coordinates":[[[-81.36612399997884,40.83098400013571],[-81.36604000031325,40.832108999848195]],[[-81.36604000031325,40.832108999848195],[-81.36599299955927,40.832827999782374]],[[-81.36599299955927,40.832827999782374],[-81.36597400019102,40.83312400005895]],[[-81.36597400019102,40.83312400005895],[-81.36594200040395,40.833593999684304]],[[-81.36594200040395,40.833593999684304],[-81.36590600041895,40.83415099994279]],[[-81.36590600041895,40.83415099994279],[-81.36585299981718,40.83518599982404]],[[-81.36585299981718,40.83518599982404],[-81.36580099993864,40.83624600006363]],[[-81.36580099993864,40.83624600006363],[-81.36575099970995,40.83721500016694]],[[-81.36575099970995,40.83721500016694],[-81.36572399994576,40.83772400012084]],[[-81.36572399994576,40.83772400012084],[-81.36569499963345,40.8382820000739],[-81.36560400029515,40.84010900020075],[-81.36558599985351,40.84045800033184]],[[-81.36558599985351,40.84045800033184],[-81.36558000000572,40.840583999766075]],[[-81.36558000000572,40.840583999766075],[-81.36554200037088,40.8413579999677]],[[-81.36554200037088,40.8413579999677],[-81.36548499957115,40.84247599993292]],[[-81.36548499957115,40.84247599993292],[-81.3654240003701,40.84364800030923]],[[-81.3654240003701,40.84364800030923],[-81.36540500010354,40.84402499976234]],[[-81.36540500010354,40.84402499976234],[-81.36539199968473,40.84429599977488]],[[-81.36539199968473,40.84429599977488],[-81.36533399995842,40.84555900030697]],[[-81.36533399995842,40.84555900030697],[-81.36527299985904,40.84678799974422],[-81.36525600014062,40.847089999842474],[-81.36524699991978,40.84739199992347],[-81.36517300029993,40.84882299982358],[-81.36515099966032,40.849263999914356],[-81.36506299979678,40.85108799972069],[-81.36496099968953,40.85319699986245],[-81.36490600033625,40.85438999968476],[-81.36488299987172,40.85479800016009],[-81.36487899967376,40.85488100004414],[-81.3647830003126,40.856763999868726]],[[-81.3647830003126,40.856763999868726],[-81.36471899984018,40.85802699988198]],[[-81.36471899984018,40.85802699988198],[-81.3646929999009,40.85847700014771]],[[-81.3646929999009,40.85847700014771],[-81.36461799955785,40.86011300008136]]],"type":"MultiLineString"},"properties":{"BASENAME":"Market","MTFCC":"S1200","NAME":"Market Ave N","OBJECTID":101482,"OID":"1101561204652","PREDIR":null,"PREDIRABRV":null,"PREQUAL":null,"PREQUALABRV":null,"PRETYP":null,"PRETYPEABRV":null,"RTTYP":"M","SUFDIR":11,"SUFDIRABRV":"N","SUFQUAL":null,"SUFQUALABRV":null,"SUFTYP":125,"SUFTYPEABRV":"Ave","_gridCityId":"canton-oh","_gridSourceLayer":"secondary"},"type":"Feature"},{"geometry":{"coordinates":[[-81.37292500036615,40.79807900026097],[-81.37266500007516,40.79879700019405],[-81.37241900002786,40.79949399997984],[-81.3721760003536,40.800178000016565],[-81.37192799975819,40.80088100000088],[-81.37173199993958,40.80140500028516],[-81.37167000001531,40.801551000097305],[-81.37142399996802,40.80222399969938],[-81.37131900038602,40.802519999886606],[-81.37120999970777,40.80282400021185],[-81.37110299957764,40.80312200028871],[-81.37055399958166,40.80462999988428],[-81.3704930003806,40.804817999855835],[-81.37044899999968,40.80498400025606],[-81.37024200031044,40.80608199994305],[-81.37018299986089,40.80639099997918],[-81.37012099993662,40.8067110001922],[-81.37005800018741,40.80703400015355],[-81.36998700004231,40.80740499991214],[-81.36994000018665,40.80765600021835],[-81.36976600010937,40.80855999978732],[-81.36965999980416,40.80908600030427],[-81.36958299981127,40.809527999745846],[-81.36956600009283,40.80961700019565],[-81.36949800032076,40.809982000195845],[-81.36940600025926,40.810471000147096],[-81.36935799968037,40.81077600023427],[-81.36931199964963,40.81113700009059],[-81.36919000034919,40.81249799976707],[-81.36916699988467,40.81285399987279],[-81.36917199990752,40.81299099998895],[-81.36919000034919,40.813127999822164],[-81.36921999958811,40.81326299983268],[-81.36925899994617,40.81339700014061],[-81.36929499993118,40.81348999990601]],"type":"LineString"},"properties":{"BASENAME":"Walnut","MTFCC":"S1200","NAME":"Walnut Ave NE","OBJECTID":101487,"OID":"1101561205603","PREDIR":null,"PREDIRABRV":null,"PREQUAL":null,"PREQUALABRV":null,"PRETYP":null,"PRETYPEABRV":null,"RTTYP":"M","SUFDIR":15,"SUFDIRABRV":"NE","SUFQUAL":null,"SUFQUALABRV":null,"SUFTYP":125,"SUFTYPEABRV":"Ave","_gridCityId":"canton-oh","_gridSourceLayer":"secondary"},"type":"Feature"},{"geometry":{"coordinates":[[-81.37292500036615,40.79807900026097],[-81.37317899991105,40.797361999711846],[-81.37329199988895,40.79705099977353]],"type":"LineString"},"properties":{"BASENAME":"Walnut","MTFCC":"S1200","NAME":"Walnut Ave SE","OBJECTID":101488,"OID":"1101561205609","PREDIR":null,"PREDIRABRV":null,"PREQUAL":null,"PREQUALABRV":null,"PRETYP":null,"PRETYPEABRV":null,"RTTYP":"M","SUFDIR":17,"SUFDIRABRV":"SE","SUFQUAL":null,"SUFQUALABRV":null,"SUFTYP":125,"SUFTYPEABRV":"Ave","_gridCityId":"canton-oh","_gridSourceLayer":"secondary"},"type":"Feature"},{"geometry":{"coordinates":[[[-81.3220629998337,40.78931499981883],[-81.32020099976054,40.78915400000566]],[[-81.32020099976054,40.78915400000566],[-81.31964199971881,40.789114000109805]],[[-81.31964199971881,40.789114000109805],[-81.3195570002283,40.789107999987316]],[[-81.3195570002283,40.789107999987316],[-81.31827699976311,40.78901800012545]],[[-81.31827699976311,40.78901800012545],[-81.31736700009209,40.78896599987761]],[[-81.31736700009209,40.78896599987761],[-81.3168520004313,40.78893200000746]]],"type":"MultiLineString"},"properties":{"BASENAME":"Lincoln","MTFCC":"S1200","NAME":"Lincoln St E","OBJECTID":101493,"OID":"1101561207443","PREDIR":null,"PREDIRABRV":null,"PREQUAL":null,"PREQUALABRV":null,"PRETYP":null,"PRETYPEABRV":null,"RTTYP":"M","SUFDIR":13,"SUFDIRABRV":"E","SUFQUAL":null,"SUFQUALABRV":null,"SUFTYP":595,"SUFTYPEABRV":"St","_gridCityId":"canton-oh","_gridSourceLayer":"secondary"},"type":"Feature"},{"geometry":{"coordinates":[[-81.33989900039255,40.83395499974723],[-81.33980099958492,40.83398899966319],[-81.33920200025854,40.834186000232286],[-81.33854299975938,40.83439099990623],[-81.33777000035569,40.83461999997612],[-81.3372129999638,40.83477600000111],[-81.33642700014133,40.834983000134145],[-81.33569400002231,40.83516199967883],[-81.33490099962884,40.835347999897344],[-81.33393200040659,40.83556100028492],[-81.32953399969252,40.83649400003524],[-81.32765099970295,40.83689899998105],[-81.32715600013364,40.83700200033613],[-81.32502200007391,40.83744800033714],[-81.32159699967838,40.838180000082495],[-81.32051100028026,40.83840699983594],[-81.3173529998484,40.83907899966584],[-81.31400100014608,40.8397939999282],[-81.31309200029997,40.83999899993045],[-81.31246999961073,40.84014800024038],[-81.31173999986477,40.84033499976313],[-81.31095800024028,40.84054499998297],[-81.31034700032,40.84071799992636],[-81.31023299961885,40.84075300014676],[-81.30974200024748,40.840902999814055],[-81.30908299974833,40.84110999984406],[-81.30782599974766,40.84150800030466],[-81.30753399966963,40.841601999753784],[-81.30750699990544,40.841611000294115],[-81.30529900022589,40.84232300005337],[-81.30523300010363,40.84234399995113]],"type":"LineString"},"properties":{"BASENAME":"Atlantic","MTFCC":"S1200","NAME":"Atlantic Blvd NE","OBJECTID":101880,"OID":"1101561208722","PREDIR":null,"PREDIRABRV":null,"PREQUAL":null,"PREQUALABRV":null,"PRETYP":null,"PRETYPEABRV":null,"RTTYP":"M","SUFDIR":15,"SUFDIRABRV":"NE","SUFQUAL":null,"SUFQUALABRV":null,"SUFTYP":142,"SUFTYPEABRV":"Blvd","_gridCityId":"canton-oh","_gridSourceLayer":"secondary"},"type":"Feature"},{"geometry":{"coordinates":[[[-81.33989699984441,40.83410700011578],[-81.33883800021046,40.83446299979382]],[[-81.33883800021046,40.83446299979382],[-81.33823899998576,40.83465700027229]],[[-81.33823899998576,40.83465700027229],[-81.3375240003084,40.834873999977205]],[[-81.3375240003084,40.834873999977205],[-81.33686099961128,40.83506799993264]],[[-81.33686099961128,40.83506799993264],[-81.33641899974539,40.83518800006234]],[[-81.33641899974539,40.83518800006234],[-81.33574099987798,40.83535900016068]],[[-81.33574099987798,40.83535900016068],[-81.33544299995215,40.83542999990104]],[[-81.33544299995215,40.83542999990104],[-81.33511999991197,40.8355070002514]],[[-81.33511999991197,40.8355070002514],[-81.33444200004453,40.83566199977639]],[[-81.33444200004453,40.83566199977639],[-81.33438199977006,40.83567599998313],[-81.3271460000879,40.837215999915614],[-81.32455000007081,40.83776699984577],[-81.32046100005154,40.83863600030552],[-81.31734199997774,40.83929500013039],[-81.31589199963324,40.839602000315786],[-81.31429900007191,40.83994500011403],[-81.31350300020372,40.84012199976343],[-81.31270999981024,40.8403099997412],[-81.31192200033794,40.84050600017691],[-81.31130600039481,40.84066899985858],[-81.31063900039804,40.84085800001747],[-81.30992200017255,40.841072000061004],[-81.30919400007639,40.84129900010462],[-81.30752699999692,40.84183100005886],[-81.30749600003479,40.841841999926025],[-81.30240399955976,40.84347200021603],[-81.30156800040689,40.84373800016086],[-81.30129700024523,40.84382399993509],[-81.29772700008473,40.844959000296825]]],"type":"MultiLineString"},"properties":{"BASENAME":"Atlantic","MTFCC":"S1200","NAME":"Atlantic Blvd NE","OBJECTID":101881,"OID":"1101561208723","PREDIR":null,"PREDIRABRV":null,"PREQUAL":null,"PREQUALABRV":null,"PRETYP":null,"PRETYPEABRV":null,"RTTYP":"M","SUFDIR":15,"SUFDIRABRV":"NE","SUFQUAL":null,"SUFQUALABRV":null,"SUFTYP":142,"SUFTYPEABRV":"Blvd","_gridCityId":"canton-oh","_gridSourceLayer":"secondary"},"type":"Feature"},{"geometry":{"coordinates":[[[-81.35183599983918,40.83071600029329],[-81.35178399996065,40.83071799998668],[-81.35141099969175,40.830735999943535],[-81.3508220004111,40.83077599990573],[-81.35031900044584,40.83081900005908],[-81.35022300018639,40.83082700017934],[-81.3501760003307,40.83083100023912],[-81.35010500018561,40.83083799983342]],[[-81.35012299972895,40.83063600027241],[-81.3502109995925,40.830627000281005],[-81.35024199955464,40.83062499990515],[-81.35034100018716,40.83061699976048],[-81.35050600004361,40.830603999693245],[-81.35109400039767,40.83057099992949]],[[-81.35109400039767,40.83057099992949],[-81.35162699960182,40.83054800000202]],[[-81.35162699960182,40.83054800000202],[-81.35178399996065,40.83054600030345]],[[-81.35178399996065,40.83054600030345],[-81.35184099986206,40.83054600030345]]],"type":"MultiLineString"},"properties":{"BASENAME":"Atlantic","MTFCC":"S1200","NAME":"Atlantic Blvd NE","OBJECTID":101884,"OID":"1101561208727","PREDIR":null,"PREDIRABRV":null,"PREQUAL":null,"PREQUALABRV":null,"PRETYP":null,"PRETYPEABRV":null,"RTTYP":"M","SUFDIR":15,"SUFDIRABRV":"NE","SUFQUAL":null,"SUFQUALABRV":null,"SUFTYP":142,"SUFTYPEABRV":"Blvd","_gridCityId":"canton-oh","_gridSourceLayer":"secondary"},"type":"Feature"},{"geometry":{"coordinates":[[[-81.35458599984206,40.808662999966096],[-81.35321400021365,40.8086099999667],[-81.352498999638,40.8085880000828],[-81.35212700009232,40.8085700002342],[-81.35163099979978,40.80854700015609],[-81.35145099987473,40.80854400029315],[-81.35133500042208,40.80855000001893],[-81.35126799957662,40.808562000148804],[-81.35117700023832,40.808584000041336],[-81.3509360002139,40.808680999789466],[-81.35091100009956,40.80869199971689],[-81.35067900029597,40.80879099966174],[-81.34963499983232,40.809201999851986],[-81.34902700028509,40.80945599998216],[-81.34857899967314,40.809637000089324],[-81.34824099956433,40.80977500021117],[-81.34800200008804,40.80987200025812],[-81.34757199991773,40.81004700032053],[-81.34692300036262,40.81031100012035],[-81.34588499974677,40.810736999915626],[-81.34547399984302,40.81090200032247],[-81.34462299972323,40.81124499969038],[-81.343578000333,40.811671000288236],[-81.34325699994262,40.811802000016364],[-81.34231399976134,40.81218099996344],[-81.34123000001303,40.81262399998468],[-81.34079499981986,40.81279599991707],[-81.34016899983096,40.81305100000033],[-81.33954799986495,40.81331100032928],[-81.33921099958107,40.813443000325975],[-81.33770300040854,40.81402200000584],[-81.33734299966014,40.81415800033326],[-81.33664899989917,40.814421000000664],[-81.33603100030619,40.81465500013375],[-81.33547499973919,40.81486400002259],[-81.33494599983469,40.815069000282314],[-81.33453099973298,40.81524099999494],[-81.3336520000241,40.81561899993892],[-81.33243299965828,40.8161389998461],[-81.33169000039184,40.8164469998981],[-81.33111200008354,40.81669200032438],[-81.33075300005834,40.81683300021778],[-81.33024000004734,40.81705800020811],[-81.32988699986993,40.81722199980176],[-81.32944300035423,40.81743900013747],[-81.32900599961292,40.817646000006036],[-81.32837100030149,40.817948999663805],[-81.3282099997447,40.81803100010952],[-81.32794799980388,40.81816300023276],[-81.32734500027952,40.81844799968029],[-81.32678799988761,40.81871200004402],[-81.32628599974727,40.818951000118616],[-81.32592199969919,40.81912500000676],[-81.32519500032629,40.819469999724575],[-81.32510099971665,40.81951399974677],[-81.32398699983113,40.820019000275614],[-81.32299799961908,40.82046800031288],[-81.32288200016642,40.82052099967764],[-81.32204799976508,40.82090000012188],[-81.32191700024383,40.82095899978455],[-81.32152200023363,40.82113799979968],[-81.32083500014535,40.821449999700434],[-81.3206769999616,40.82152500000033],[-81.31972299990964,40.82193600016509],[-81.31836399980176,40.82251899969878],[-81.31822300023475,40.82258199983832],[-81.31765800034522,40.822842000201874]],[[-81.3173899996583,40.822964999916735],[-81.31698700015049,40.8231520003229]],[[-81.31698700015049,40.8231520003229],[-81.31689199971593,40.82319599994202]],[[-81.31689199971593,40.82319599994202],[-81.31619499958194,40.823517999911964]],[[-81.31619499958194,40.823517999911964],[-81.3153810001704,40.82388700004951]],[[-81.3153810001704,40.82388700004951],[-81.31510900018381,40.824005000126334]]],"type":"MultiLineString"},"properties":{"BASENAME":"Mahoning","MTFCC":"S1200","NAME":"Mahoning Rd NE","OBJECTID":101889,"OID":"1101561210066","PREDIR":null,"PREDIRABRV":null,"PREQUAL":null,"PREQUALABRV":null,"PRETYP":null,"PRETYPEABRV":null,"RTTYP":"M","SUFDIR":15,"SUFDIRABRV":"NE","SUFQUAL":null,"SUFQUALABRV":null,"SUFTYP":531,"SUFTYPEABRV":"Rd","_gridCityId":"canton-oh","_gridSourceLayer":"secondary"},"type":"Feature"},{"geometry":{"coordinates":[[-81.38804700000883,40.77300100002707],[-81.3879109995664,40.77279499972929],[-81.38787100028173,40.77274000026499],[-81.38782400042608,40.77267499966437],[-81.3876700004403,40.77248300033419],[-81.38686700000109,40.77152300012308],[-81.38681099992456,40.771420000143884],[-81.38678800035835,40.77136200003911]],"type":"LineString"},"properties":{"BASENAME":"Cleveland","MTFCC":"S1200","NAME":"Cleveland Ave SW","OBJECTID":101893,"OID":"1101561211716","PREDIR":null,"PREDIRABRV":null,"PREQUAL":null,"PREQUALABRV":null,"PRETYP":null,"PRETYPEABRV":null,"RTTYP":"M","SUFDIR":18,"SUFDIRABRV":"SW","SUFQUAL":null,"SUFQUALABRV":null,"SUFTYP":125,"SUFTYPEABRV":"Ave","_gridCityId":"canton-oh","_gridSourceLayer":"secondary"},"type":"Feature"},{"geometry":{"coordinates":[[-81.38678800035835,40.77136200003911],[-81.38638199957919,40.770877000031504],[-81.38576999983398,40.770142999670874],[-81.38546400041055,40.76978599967808],[-81.38537200034904,40.76969199982216],[-81.3852490003254,40.769571000188186],[-81.38509299979147,40.76943599975742],[-81.38406099992172,40.76860600025418],[-81.38363699959919,40.768262000206605],[-81.38344300032875,40.76809400029566],[-81.38328099994703,40.767941000286584]],"type":"LineString"},"properties":{"BASENAME":"Cleveland","MTFCC":"S1200","NAME":"Cleveland Ave SW","OBJECTID":102023,"OID":"1101561211717","PREDIR":null,"PREDIRABRV":null,"PREQUAL":null,"PREQUALABRV":null,"PRETYP":null,"PRETYPEABRV":null,"RTTYP":"M","SUFDIR":18,"SUFDIRABRV":"SW","SUFQUAL":null,"SUFQUALABRV":null,"SUFTYP":125,"SUFTYPEABRV":"Ave","_gridCityId":"canton-oh","_gridSourceLayer":"secondary"},"type":"Feature"},{"geometry":{"coordinates":[[-81.38813800024543,40.772937999756095],[-81.38800400035113,40.77273099990304],[-81.38795900014529,40.772672000221185],[-81.38786200006089,40.77254400027011],[-81.38767799993789,40.772320999808734],[-81.38696499991036,40.77147500002054],[-81.38685600013042,40.771396000059745],[-81.38678800035835,40.77136200003911]],"type":"LineString"},"properties":{"BASENAME":"Cleveland","MTFCC":"S1200","NAME":"Cleveland Ave SW","OBJECTID":102024,"OID":"1101561211718","PREDIR":null,"PREDIRABRV":null,"PREQUAL":null,"PREQUALABRV":null,"PRETYP":null,"PRETYPEABRV":null,"RTTYP":"M","SUFDIR":18,"SUFDIRABRV":"SW","SUFQUAL":null,"SUFQUALABRV":null,"SUFTYP":125,"SUFTYPEABRV":"Ave","_gridCityId":"canton-oh","_gridSourceLayer":"secondary"},"type":"Feature"},{"geometry":{"coordinates":[[[-81.3985549999257,40.799641000230395],[-81.39874499989648,40.799615000191274],[-81.39893599969218,40.79959100009378],[-81.39942100011409,40.799533000105754],[-81.40027100040896,40.799433000312256],[-81.40069800020622,40.79938300001897],[-81.40088800017703,40.79936099979643],[-81.40166899997662,40.79926900027034],[-81.40216100007122,40.79921100000096],[-81.40264499976986,40.79915500032593],[-81.40343800016336,40.79906299983435],[-81.40379800001347,40.79902099981882],[-81.40471100005753,40.79891500001774],[-81.40551000029879,40.79882200022605],[-81.40658099962828,40.79869699997177],[-81.40696399994293,40.7986520000946],[-81.407588000282,40.79857800010941],[-81.40812300003431,40.79851500029591],[-81.40838999999798,40.79848400019303],[-81.4091649999498,40.79839299978545],[-81.4093409996769,40.798372000249095],[-81.4099189999852,40.79830199993317],[-81.4100179997194,40.79828999998822],[-81.41073699959472,40.79820499997572],[-81.41113099978003,40.79815900010755],[-81.412228999772,40.7980290003079],[-81.41325499979398,40.79790599992303],[-81.4144940002513,40.797756000239964],[-81.41569699982527,40.797616000275255],[-81.4169310002597,40.79746799995269],[-81.41759400005851,40.79738599993518],[-81.41811600029035,40.79732200000042],[-81.41918699961984,40.79719700032181],[-81.41940599990296,40.79717199967776],[-81.42038400024435,40.79705099977353],[-81.42069300004083,40.79701400025896],[-81.42148300006127,40.79691899981188],[-81.42199600007224,40.79685799981819],[-81.42405200031415,40.796611000240794],[-81.42503800015315,40.796489000311446],[-81.42634000035966,40.79632800021199]],[[-81.42699599958746,40.79624499978013],[-81.42751399962131,40.796185999901624]]],"type":"MultiLineString"},"properties":{"BASENAME":"Tuscarawas","MTFCC":"S1200","NAME":"Tuscarawas St W","OBJECTID":102036,"OID":"1101561214318","PREDIR":null,"PREDIRABRV":null,"PREQUAL":null,"PREQUALABRV":null,"PRETYP":null,"PRETYPEABRV":null,"RTTYP":"M","SUFDIR":14,"SUFDIRABRV":"W","SUFQUAL":null,"SUFQUALABRV":null,"SUFTYP":595,"SUFTYPEABRV":"St","_gridCityId":"canton-oh","_gridSourceLayer":"secondary"},"type":"Feature"},{"geometry":{"coordinates":[[-81.39640300032264,40.79992899993027],[-81.39657200037703,40.79994900002361],[-81.39662599990538,40.79994900002361],[-81.39674100043142,40.799939000317714],[-81.39692300000631,40.799912000084234],[-81.39766699999598,40.79980500003325],[-81.39772200024755,40.79979799988404],[-81.39839799956685,40.79971299976252],[-81.39844500032082,40.79969999975831],[-81.39848799997854,40.799680000269994],[-81.3985549999257,40.799641000230395]],"type":"LineString"},"properties":{"BASENAME":"Tuscarawas","MTFCC":"S1200","NAME":"Tuscarawas St W","OBJECTID":102187,"OID":"1101561214319","PREDIR":null,"PREDIRABRV":null,"PREQUAL":null,"PREQUALABRV":null,"PRETYP":null,"PRETYPEABRV":null,"RTTYP":"M","SUFDIR":14,"SUFDIRABRV":"W","SUFQUAL":null,"SUFQUALABRV":null,"SUFTYP":595,"SUFTYPEABRV":"St","_gridCityId":"canton-oh","_gridSourceLayer":"secondary"},"type":"Feature"},{"geometry":{"coordinates":[[-81.39640300032264,40.79992899993027],[-81.39649899968379,40.79988800009418],[-81.39658999992037,40.79986200015181],[-81.39679300030997,40.799830999997944],[-81.39744799971285,40.799730999973356],[-81.39766899964579,40.79970100007259],[-81.398063999656,40.79964599976598],[-81.39837199962759,40.79961199992454],[-81.39843699992491,40.79961199992454],[-81.39849300000141,40.79962100004426],[-81.3985549999257,40.799641000230395]],"type":"LineString"},"properties":{"BASENAME":"Tuscarawas","MTFCC":"S1200","NAME":"Tuscarawas St W","OBJECTID":102188,"OID":"1101561214320","PREDIR":null,"PREDIRABRV":null,"PREQUAL":null,"PREQUALABRV":null,"PRETYP":null,"PRETYPEABRV":null,"RTTYP":"M","SUFDIR":14,"SUFDIRABRV":"W","SUFQUAL":null,"SUFQUALABRV":null,"SUFTYP":595,"SUFTYPEABRV":"St","_gridCityId":"canton-oh","_gridSourceLayer":"secondary"},"type":"Feature"},{"geometry":{"coordinates":[[-81.34947900019672,40.78805299972185],[-81.34945699955709,40.788008000111425],[-81.34938299993725,40.78785300008638],[-81.34917799989783,40.78742100004223],[-81.34911000012578,40.78728700033602],[-81.34904700037659,40.78717700019239],[-81.34903800015574,40.78716299995082],[-81.34886699955321,40.7868850002752],[-81.34875600012344,40.786723000182015],[-81.34834600004463,40.78618300019135],[-81.34803899989795,40.78578699999208],[-81.3479850003696,40.7857089998909],[-81.3479729997757,40.785695000020034]],"type":"LineString"},"properties":{"BASENAME":"Waynesburg","MTFCC":"S1200","NAME":"Waynesburg Dr SE","OBJECTID":102190,"OID":"1101561214416","PREDIR":null,"PREDIRABRV":null,"PREQUAL":null,"PREQUALABRV":null,"PRETYP":null,"PRETYPEABRV":null,"RTTYP":"M","SUFDIR":17,"SUFDIRABRV":"SE","SUFQUAL":null,"SUFQUALABRV":null,"SUFTYP":247,"SUFTYPEABRV":"Dr","_gridCityId":"canton-oh","_gridSourceLayer":"secondary"},"type":"Feature"},{"geometry":{"coordinates":[[-81.34941899992225,40.788197999846076],[-81.34934899960207,40.78805000029288],[-81.34932600003584,40.78800299969943],[-81.349252000416,40.78785300008638],[-81.34897799988128,40.787297999728246],[-81.34886800027644,40.787101000011425],[-81.34873100000908,40.786889000264104],[-81.34855899958163,40.78665000033415],[-81.3482670004019,40.78620900004968],[-81.34791599987432,40.78574399989533],[-81.34790400017874,40.785722999758875]],"type":"LineString"},"properties":{"BASENAME":"Waynesburg","MTFCC":"S1200","NAME":"Waynesburg Dr SE","OBJECTID":102191,"OID":"1101561214417","PREDIR":null,"PREDIRABRV":null,"PREQUAL":null,"PREQUALABRV":null,"PRETYP":null,"PRETYPEABRV":null,"RTTYP":"M","SUFDIR":17,"SUFDIRABRV":"SE","SUFQUAL":null,"SUFQUALABRV":null,"SUFTYP":247,"SUFTYPEABRV":"Dr","_gridCityId":"canton-oh","_gridSourceLayer":"secondary"},"type":"Feature"},{"geometry":{"coordinates":[[-81.36929499993118,40.81348999990601],[-81.36930900017488,40.81352799986034],[-81.36937000027424,40.81365300005759],[-81.36941700012991,40.813735999797366],[-81.36953900032866,40.81389099990172],[-81.36980000044456,40.81418400011419],[-81.36988599975996,40.81429900017344],[-81.3699379996385,40.814394000219856],[-81.36997699999657,40.81449399990704],[-81.37001700017954,40.81462500018022],[-81.37002999970002,40.81468199980835]],"type":"LineString"},"properties":{"BASENAME":"Walnut Cutthru","MTFCC":"S1200","NAME":"Walnut Cutthru NE","OBJECTID":102351,"OID":"1101561215672","PREDIR":null,"PREDIRABRV":null,"PREQUAL":null,"PREQUALABRV":null,"PRETYP":null,"PRETYPEABRV":null,"RTTYP":"M","SUFDIR":15,"SUFDIRABRV":"NE","SUFQUAL":null,"SUFQUALABRV":null,"SUFTYP":null,"SUFTYPEABRV":null,"_gridCityId":"canton-oh","_gridSourceLayer":"secondary"},"type":"Feature"},{"geometry":{"coordinates":[[-81.36965999980416,40.80908600030427],[-81.36917399955736,40.80906699973771],[-81.36878699994307,40.809062000231876],[-81.36801799983905,40.809043999831914],[-81.36785499963243,40.809043999831914],[-81.36626000042126,40.80900200001286],[-81.36469100025109,40.8089630000114],[-81.3631720003096,40.80892699983281],[-81.36282300033017,40.808921000141126],[-81.36157300000218,40.80888899996304],[-81.36084400008114,40.80887199969221],[-81.36051299964504,40.80886300014698],[-81.36010699976417,40.80885299974431],[-81.35998700011356,40.80884899971882],[-81.35863300002853,40.80882299988709],[-81.35809200042847,40.80880399992511],[-81.35746300006652,40.808779000253224],[-81.35724700015645,40.80877000001549],[-81.35579599998704,40.808711999889354],[-81.35458599984206,40.808662999966096]],"type":"LineString"},"properties":{"BASENAME":"12th","MTFCC":"S1200","NAME":"12th St NE","OBJECTID":109616,"OID":"1103691312170","PREDIR":null,"PREDIRABRV":null,"PREQUAL":null,"PREQUALABRV":null,"PRETYP":null,"PRETYPEABRV":null,"RTTYP":"M","SUFDIR":15,"SUFDIRABRV":"NE","SUFQUAL":null,"SUFQUALABRV":null,"SUFTYP":595,"SUFTYPEABRV":"St","_gridCityId":"canton-oh","_gridSourceLayer":"secondary"},"type":"Feature"},{"geometry":{"coordinates":[[[-81.4169310002597,40.79746799995269],[-81.41701199955224,40.79644099988756],[-81.41706099995604,40.79583200020959],[-81.41708400042059,40.79552500005292],[-81.41709899959088,40.79517499972635],[-81.41723400020841,40.79295100004503],[-81.41729299975964,40.79206600005839],[-81.4174030002628,40.790371000212495],[-81.41744400027069,40.78973200029975],[-81.41748899957821,40.78905100015697],[-81.41750500037007,40.788915000065806],[-81.41754800002775,40.788682999907586],[-81.41759200040869,40.788521000119815]],[[-81.41987399970812,40.78419600031496],[-81.41977699962372,40.783440000124344]],[[-81.41977699962372,40.783440000124344],[-81.4197409996387,40.78316500015817]],[[-81.4197409996387,40.78316500015817],[-81.41968000043765,40.78270300012759]],[[-81.41968000043765,40.78270300012759],[-81.41961699979015,40.78215500023262]],[[-81.41961699979015,40.78215500023262],[-81.41959599987375,40.78199499996656]]],"type":"MultiLineString"},"properties":{"BASENAME":"297","MTFCC":"S1200","NAME":"State Rte 297","OBJECTID":181687,"OID":"1104763069139","PREDIR":null,"PREDIRABRV":null,"PREQUAL":null,"PREQUALABRV":null,"PRETYP":586,"PRETYPEABRV":"State Rte","RTTYP":"S","SUFDIR":null,"SUFDIRABRV":null,"SUFQUAL":null,"SUFQUALABRV":null,"SUFTYP":null,"SUFTYPEABRV":null,"_gridCityId":"canton-oh","_gridSourceLayer":"secondary"},"type":"Feature"},{"geometry":{"coordinates":[[[-81.40534600026724,40.75103000018046],[-81.40573999955424,40.75104100013167],[-81.40646500017564,40.75106099997652],[-81.4091449998583,40.751151999909105],[-81.40955099973917,40.751166000254116],[-81.40971499977071,40.751169999671596],[-81.40983699996944,40.75117300008525],[-81.41031599964523,40.75118600006131],[-81.41403099957071,40.75130600013943],[-81.41547400024251,40.75135300015635]],[[-81.41547400024251,40.75135300015635],[-81.4174869999284,40.75141799983543]],[[-81.4174869999284,40.75141799983543],[-81.41764400028724,40.75142300027927],[-81.41950899983512,40.75148300013151],[-81.42197599998076,40.751566000019345],[-81.42314199974483,40.75160299967363],[-81.42331199962413,40.7516080001035],[-81.42439799992056,40.751642000022585],[-81.42493799969573,40.751660000332954],[-81.42686500006621,40.75172400003607],[-81.4269699996482,40.75172699974416],[-81.42731600015291,40.751738000260644],[-81.42750500029881,40.75174399967547]],[[-81.42750500029881,40.75174399967547],[-81.42788400041549,40.75175700022041]],[[-81.42788400041549,40.75175700022041],[-81.42853600034364,40.75178099991119]],[[-81.42853600034364,40.75178099991119],[-81.42882900024662,40.7517910000633]]],"type":"MultiLineString"},"properties":{"BASENAME":"Faircrest","MTFCC":"S1200","NAME":"Faircrest St SW","OBJECTID":179246,"OID":"1104763184096","PREDIR":null,"PREDIRABRV":null,"PREQUAL":null,"PREQUALABRV":null,"PRETYP":null,"PRETYPEABRV":null,"RTTYP":"M","SUFDIR":18,"SUFDIRABRV":"SW","SUFQUAL":null,"SUFQUALABRV":null,"SUFTYP":595,"SUFTYPEABRV":"St","_gridCityId":"canton-oh","_gridSourceLayer":"secondary"},"type":"Feature"},{"geometry":{"coordinates":[[[-81.4169310002597,40.79746799995269],[-81.41701199955224,40.79644099988756],[-81.41706099995604,40.79583200020959],[-81.41708400042059,40.79552500005292],[-81.41709899959088,40.79517499972635],[-81.41723400020841,40.79295100004503],[-81.41729299975964,40.79206600005839],[-81.4174030002628,40.790371000212495],[-81.41744400027069,40.78973200029975],[-81.41748899957821,40.78905100015697],[-81.41750500037007,40.788915000065806],[-81.41754800002775,40.788682999907586],[-81.41759200040869,40.788521000119815]],[[-81.41987399970812,40.78419600031496],[-81.41977699962372,40.783440000124344]],[[-81.41977699962372,40.783440000124344],[-81.4197409996387,40.78316500015817]],[[-81.4197409996387,40.78316500015817],[-81.41968000043765,40.78270300012759]],[[-81.41968000043765,40.78270300012759],[-81.41961699979015,40.78215500023262]],[[-81.41961699979015,40.78215500023262],[-81.41959599987375,40.78199499996656]]],"type":"MultiLineString"},"properties":{"BASENAME":"Raff","MTFCC":"S1200","NAME":"Raff Rd SW","OBJECTID":179247,"OID":"1104763186819","PREDIR":null,"PREDIRABRV":null,"PREQUAL":null,"PREQUALABRV":null,"PRETYP":null,"PRETYPEABRV":null,"RTTYP":"M","SUFDIR":18,"SUFDIRABRV":"SW","SUFQUAL":null,"SUFQUALABRV":null,"SUFTYP":531,"SUFTYPEABRV":"Rd","_gridCityId":"canton-oh","_gridSourceLayer":"secondary"},"type":"Feature"},{"geometry":{"coordinates":[[-81.36043300017741,40.79558399983879],[-81.3599469999306,40.795484999914706]],"type":"LineString"},"properties":{"BASENAME":"Jobe","MTFCC":"S1200","NAME":"Jobe Ct NE","OBJECTID":180396,"OID":"1104764201046","PREDIR":null,"PREDIRABRV":null,"PREQUAL":null,"PREQUALABRV":null,"PRETYP":null,"PRETYPEABRV":null,"RTTYP":"M","SUFDIR":15,"SUFDIRABRV":"NE","SUFQUAL":null,"SUFQUALABRV":null,"SUFTYP":220,"SUFTYPEABRV":"Ct","_gridCityId":"canton-oh","_gridSourceLayer":"secondary"},"type":"Feature"},{"geometry":{"coordinates":[[-81.37239100043875,40.79433800008031],[-81.37240499978417,40.794254999880785],[-81.37241200035515,40.794209999712805],[-81.37247400027944,40.79383500007409],[-81.37252299978492,40.793540000329685],[-81.37256200014299,40.7933070002783],[-81.37263099973997,40.79288900006902],[-81.3727529999387,40.792150000022026],[-81.37303699962081,40.79043700027464],[-81.3731549996216,40.78981299978608],[-81.37325199970599,40.78909599974074],[-81.37329899956164,40.788786000327086],[-81.37340200039212,40.78813099979054],[-81.37344400022491,40.78783599986855],[-81.37346699979113,40.78759699994606],[-81.3734640003164,40.787502000307114],[-81.37346199976827,40.78742999977427],[-81.37345400027066,40.787289999799455]],"type":"LineString"},"properties":{"BASENAME":"Cherry","MTFCC":"S1200","NAME":"Cherry Ave SE","OBJECTID":180397,"OID":"1104764225456","PREDIR":null,"PREDIRABRV":null,"PREQUAL":null,"PREQUALABRV":null,"PRETYP":null,"PRETYPEABRV":null,"RTTYP":"M","SUFDIR":17,"SUFDIRABRV":"SE","SUFQUAL":null,"SUFQUALABRV":null,"SUFTYP":125,"SUFTYPEABRV":"Ave","_gridCityId":"canton-oh","_gridSourceLayer":"secondary"},"type":"Feature"},{"geometry":{"coordinates":[[[-81.397598000399,40.82478800026599],[-81.39762799963792,40.824802999985664],[-81.39798099981533,40.82497399967742],[-81.39836999997776,40.82516299971811],[-81.39851100044308,40.82522799992415],[-81.3987800000566,40.825344999726646],[-81.39922500029553,40.82552200029041],[-81.39926499958015,40.825538999693684],[-81.39928700021979,40.82554699977124],[-81.39942699996188,40.82560300028716],[-81.3995120003507,40.825635999804284],[-81.39976400024578,40.82573600021826]],[[-81.39976400024578,40.82573600021826],[-81.39980500025365,40.82575200032487]],[[-81.39980500025365,40.82575200032487],[-81.40042500039478,40.8259969996911]],[[-81.40042500039478,40.8259969996911],[-81.40104700018568,40.82624200019145]],[[-81.40104700018568,40.82624200019145],[-81.40146499976213,40.82640399968673]],[[-81.40146499976213,40.82640399968673],[-81.40154500012807,40.82643499966249]]],"type":"MultiLineString"},"properties":{"BASENAME":"687","MTFCC":"S1200","NAME":"State Rte 687","OBJECTID":180594,"OID":"1104765241332","PREDIR":null,"PREDIRABRV":null,"PREQUAL":null,"PREQUALABRV":null,"PRETYP":586,"PRETYPEABRV":"State Rte","RTTYP":"S","SUFDIR":null,"SUFDIRABRV":null,"SUFQUAL":null,"SUFQUALABRV":null,"SUFTYP":null,"SUFTYPEABRV":null,"_gridCityId":"canton-oh","_gridSourceLayer":"secondary"},"type":"Feature"},{"geometry":{"coordinates":[[-81.37114299976062,40.797716999750016],[-81.37138499960997,40.79700000005126],[-81.3715560002125,40.79650000021951],[-81.37163900005318,40.79631199980909],[-81.37173600013755,40.79617699999625],[-81.3718240000011,40.79602899986582],[-81.37200300010124,40.795704000002274],[-81.37202499984255,40.79565599969088],[-81.37206800039857,40.79556399979047],[-81.37215000041434,40.79534799970061],[-81.37219700027002,40.79517800019363],[-81.37223499990485,40.794999000186145],[-81.37224800032362,40.79491899993182],[-81.37231400044587,40.79452899977664],[-81.3723529999056,40.794423000283615],[-81.37239100043875,40.79433800008031]],"type":"LineString"},"properties":{"BASENAME":"Cherry","MTFCC":"S1200","NAME":"Cherry Ave SE","OBJECTID":180597,"OID":"1104765241431","PREDIR":null,"PREDIRABRV":null,"PREQUAL":null,"PREQUALABRV":null,"PRETYP":null,"PRETYPEABRV":null,"RTTYP":"M","SUFDIR":17,"SUFDIRABRV":"SE","SUFQUAL":null,"SUFQUALABRV":null,"SUFTYP":125,"SUFTYPEABRV":"Ave","_gridCityId":"canton-oh","_gridSourceLayer":"secondary"},"type":"Feature"},{"geometry":{"coordinates":[[-81.37487500030284,40.79847099994817],[-81.37565899957717,40.79863000030977],[-81.37654300020722,40.79880999969501],[-81.37743299978676,40.79898900030728],[-81.37832499991444,40.7991710000436],[-81.37920299979841,40.7993499996824],[-81.38006200031411,40.79952900019854],[-81.38029699959245,40.799578999701815],[-81.38055600005853,40.79963700032963],[-81.38130099987312,40.79978100000446],[-81.38173400041647,40.79987100023764],[-81.3822370003817,40.79997400030177],[-81.38321200035007,40.80017400014822],[-81.38390600011101,40.80031499978318],[-81.38436800006838,40.800403999668625],[-81.38467400039013,40.800450000021094],[-81.38545099999178,40.8005380001039],[-81.38595700033005,40.800588999828015],[-81.38610600029297,40.80060100003744],[-81.38666899963437,40.80064599995336],[-81.38709100030707,40.800679999945146],[-81.38754300021867,40.800712000001546],[-81.38771999977068,40.80072499980751],[-81.3880300002904,40.80073800029099],[-81.38807299994811,40.80074000020823],[-81.38876500005924,40.800754000307116],[-81.38931300023033,40.800754000307116],[-81.390277000328,40.80074400004248],[-81.39066800014027,40.80073899990961],[-81.39090199959367,40.80073599969367],[-81.39105899995252,40.80072600010634],[-81.39115400038708,40.80071999967321],[-81.39153599997849,40.80067800002615],[-81.39178500039884,40.80063899989289],[-81.39229500003678,40.8005599999364],[-81.39322499979927,40.80041700021493],[-81.39387300042777,40.80031999994798],[-81.39413799984335,40.80027999997887],[-81.39501099970444,40.80014399976764],[-81.39558999983767,40.80005500021361],[-81.39576800011291,40.80002699971797],[-81.3959089996799,40.80000499970882],[-81.39608600013023,40.79997800018222],[-81.39640300032264,40.79992899993027]],"type":"LineString"},"properties":{"BASENAME":"Tuscarawas","MTFCC":"S1200","NAME":"Tuscarawas St W","OBJECTID":180783,"OID":"1104765241538","PREDIR":null,"PREDIRABRV":null,"PREQUAL":null,"PREQUALABRV":null,"PRETYP":null,"PRETYPEABRV":null,"RTTYP":"M","SUFDIR":14,"SUFDIRABRV":"W","SUFQUAL":null,"SUFQUALABRV":null,"SUFTYP":595,"SUFTYPEABRV":"St","_gridCityId":"canton-oh","_gridSourceLayer":"secondary"},"type":"Feature"},{"geometry":{"coordinates":[[[-81.397598000399,40.82478800026599],[-81.39762799963792,40.824802999985664],[-81.39798099981533,40.82497399967742],[-81.39836999997776,40.82516299971811],[-81.39851100044308,40.82522799992415],[-81.3987800000566,40.825344999726646],[-81.39922500029553,40.82552200029041],[-81.39926499958015,40.825538999693684],[-81.39928700021979,40.82554699977124],[-81.39942699996188,40.82560300028716],[-81.3995120003507,40.825635999804284],[-81.39976400024578,40.82573600021826]],[[-81.39976400024578,40.82573600021826],[-81.39980500025365,40.82575200032487]],[[-81.39980500025365,40.82575200032487],[-81.40042500039478,40.8259969996911]],[[-81.40042500039478,40.8259969996911],[-81.40104700018568,40.82624200019145]],[[-81.40104700018568,40.82624200019145],[-81.40146499976213,40.82640399968673]],[[-81.40146499976213,40.82640399968673],[-81.40154500012807,40.82643499966249]]],"type":"MultiLineString"},"properties":{"BASENAME":"Fulton","MTFCC":"S1200","NAME":"Fulton Rd NW","OBJECTID":180790,"OID":"1104765241775","PREDIR":null,"PREDIRABRV":null,"PREQUAL":null,"PREQUALABRV":null,"PRETYP":null,"PRETYPEABRV":null,"RTTYP":"M","SUFDIR":16,"SUFDIRABRV":"NW","SUFQUAL":null,"SUFQUALABRV":null,"SUFTYP":531,"SUFTYPEABRV":"Rd","_gridCityId":"canton-oh","_gridSourceLayer":"secondary"},"type":"Feature"},{"geometry":{"coordinates":[[[-81.39640300032264,40.79992899993027],[-81.39608600013023,40.79997800018222],[-81.3959089996799,40.80000499970882],[-81.39576800011291,40.80002699971797],[-81.39558999983767,40.80005500021361],[-81.39501099970444,40.80014399976764],[-81.39413799984335,40.80027999997887],[-81.39387300042777,40.80031999994798],[-81.39322499979927,40.80041700021493],[-81.39229500003678,40.8005599999364],[-81.39178500039884,40.80063899989289],[-81.39153599997849,40.80067800002615],[-81.39115400038708,40.80071999967321],[-81.39105899995252,40.80072600010634],[-81.39090199959367,40.80073599969367],[-81.39066800014027,40.80073899990961],[-81.390277000328,40.80074400004248],[-81.38931300023033,40.800754000307116],[-81.38876500005924,40.800754000307116],[-81.38807299994811,40.80074000020823],[-81.3880300002904,40.80073800029099],[-81.38771999977068,40.80072499980751],[-81.38754300021867,40.800712000001546],[-81.38709100030707,40.800679999945146],[-81.38666899963437,40.80064599995336],[-81.38610600029297,40.80060100003744],[-81.38595700033005,40.800588999828015],[-81.38545099999178,40.8005380001039],[-81.38467400039013,40.800450000021094],[-81.38436800006838,40.800403999668625],[-81.38390600011101,40.80031499978318],[-81.38321200035007,40.80017400014822],[-81.3822370003817,40.79997400030177],[-81.38173400041647,40.79987100023764],[-81.38130099987312,40.79978100000446],[-81.38055600005853,40.79963700032963],[-81.38029699959245,40.799578999701815],[-81.38006200031411,40.79952900019854],[-81.37920299979841,40.7993499996824],[-81.37832499991444,40.7991710000436],[-81.37743299978676,40.79898900030728],[-81.37654300020722,40.79880999969501],[-81.37565899957717,40.79863000030977],[-81.37487500030284,40.79847099994817],[-81.37458900007259,40.79841500032886],[-81.37379900005216,40.798256999788265],[-81.37292500036615,40.79807900026097],[-81.37201800016986,40.79789399990644],[-81.37114299976062,40.797716999750016],[-81.37023399991452,40.79753700012119],[-81.37005700036252,40.79750200021222],[-81.36950599981837,40.7973930003387],[-81.36881999955501,40.7972559999818],[-81.368571000033,40.797206999760704],[-81.36802100021208,40.797096999729355],[-81.36779100005832,40.79705200012768],[-81.3663180001476,40.79675800007521],[-81.36612599962865,40.7967200000382],[-81.36568600031092,40.79663200033422],[-81.36553099960192,40.79660100003206],[-81.36498199960592,40.796489999994044],[-81.36323900025675,40.796140999682414],[-81.36317499978436,40.796128000338804],[-81.3627630000557,40.79604600002621],[-81.36229600007547,40.79595300029551],[-81.36190100006525,40.79587400020258],[-81.36138499968122,40.79577099989716],[-81.36090500018052,40.79567700008641],[-81.36043300017741,40.79558399983879],[-81.3599469999306,40.795484999914706],[-81.35980200016564,40.79545500013522],[-81.35955100009548,40.79540399986699],[-81.3585030003322,40.795187999936644],[-81.35834000012557,40.79515500023484],[-81.35819899966026,40.79512600000943],[-81.35783600033542,40.79505000008547],[-81.35766999975576,40.795015999930264],[-81.35715199972189,40.79490000006979],[-81.35693099978896,40.794851000149905],[-81.35663500041126,40.79478699981144],[-81.35624799989866,40.79470600027223],[-81.3558560002615,40.794625999664824],[-81.35546499955093,40.79454700003301],[-81.35539099993109,40.79453200027307],[-81.35469799999504,40.79439200031011],[-81.35387299981453,40.79422300011206],[-81.353055000205,40.794059000120285],[-81.35229000029895,40.793901999814935],[-81.35209500030527,40.79386200005899],[-81.35157200024854,40.79375600018114],[-81.35147900036212,40.79373699998628],[-81.3509439997115,40.7936300001832],[-81.35031100004993,40.793503000218536],[-81.34968800043409,40.79337199973272],[-81.34914399956264,40.79325499998885],[-81.34869099982612,40.79316100001618],[-81.34841999966446,40.79309999996992],[-81.34802700020239,40.79301299996308],[-81.34761399975052,40.79292000006426],[-81.34701600024903,40.79277799994546],[-81.34692699966226,40.79275999988959],[-81.34661799986577,40.79269499983597],[-81.34424199995672,40.79222599986519],[-81.34383199987789,40.79214499992194],[-81.34312999972103,40.79200800029676],[-81.34212600033867,40.79181100027074],[-81.34149100012895,40.79168799992702],[-81.3411079998143,40.791613999660214],[-81.34051000031283,40.79149899973448],[-81.33955200006291,40.79133499981513]],[[-81.3220629998337,40.78931499981883],[-81.32020099976054,40.78915400000566]],[[-81.32020099976054,40.78915400000566],[-81.31964199971881,40.789114000109805]],[[-81.31964199971881,40.789114000109805],[-81.3195570002283,40.789107999987316]],[[-81.3195570002283,40.789107999987316],[-81.31827699976311,40.78901800012545]],[[-81.31827699976311,40.78901800012545],[-81.31736700009209,40.78896599987761]],[[-81.31736700009209,40.78896599987761],[-81.3168520004313,40.78893200000746]]],"type":"MultiLineString"},"properties":{"BASENAME":"172","MTFCC":"S1200","NAME":"State Rte 172","OBJECTID":180967,"OID":"1104765242387","PREDIR":null,"PREDIRABRV":null,"PREQUAL":null,"PREQUALABRV":null,"PRETYP":586,"PRETYPEABRV":"State Rte","RTTYP":"S","SUFDIR":null,"SUFDIRABRV":null,"SUFQUAL":null,"SUFQUALABRV":null,"SUFTYP":null,"SUFTYPEABRV":null,"_gridCityId":"canton-oh","_gridSourceLayer":"secondary"},"type":"Feature"},{"geometry":{"coordinates":[[-81.37114299976062,40.797716999750016],[-81.37088400019286,40.79844100015795],[-81.37063899997047,40.79913499999337],[-81.37039399974807,40.79982100027428],[-81.37015000024891,40.8005209997338],[-81.36991000004942,40.80120399977621],[-81.3697829998278,40.801561000240326],[-81.36967800024581,40.80186300031467],[-81.36956899956756,40.802177000299395],[-81.36949800032076,40.80238400018507],[-81.36946800018353,40.80246900028617],[-81.36935900040359,40.80277899973258],[-81.36920100021985,40.80323399969781],[-81.36897899956368,40.80387699986096],[-81.36877000022461,40.80450299988423],[-81.36870099972934,40.804716000067586],[-81.3686560004218,40.80487299995662],[-81.36848599964418,40.80574499970476],[-81.36845399985714,40.80591699978997],[-81.36843799996359,40.8060039998847],[-81.36842799991786,40.806055000168584],[-81.36840600017656,40.80615500018477],[-81.36836599999359,40.806372000000835],[-81.3683030002444,40.80669899972761],[-81.36822999955113,40.80707999999065],[-81.368198999589,40.807249000094096],[-81.36803200008274,40.8081199997122],[-81.36785499963243,40.809043999831914],[-81.36782700004333,40.8095640002783],[-81.36780899960166,40.80990100016052],[-81.36780199992896,40.81004399984548],[-81.36779500025628,40.810173999909765],[-81.36770300019478,40.81202099998075],[-81.36768099955515,40.8124450001112],[-81.36766700020976,40.8127290002099],[-81.36762899967661,40.81345599967792],[-81.36759000021688,40.814181999922184],[-81.36755199968373,40.81491899995546],[-81.36750400000315,40.81593400017326],[-81.36748399991166,40.81617799970879],[-81.36745899979731,40.81637400010116],[-81.3674510002997,40.81641299982574],[-81.36743600023108,40.81648999982473],[-81.36740699991877,40.81663400032463],[-81.36716900026738,40.81747699986941],[-81.3671419996049,40.817642999874636],[-81.36713400010728,40.81775599997228],[-81.36713499993219,40.817873000038944],[-81.36715300037386,40.81803500026131],[-81.3671709999172,40.81811699992091],[-81.36719900040461,40.818203000300656],[-81.36730599963641,40.818464000185486],[-81.36737299958357,40.81858799989073],[-81.36747499969081,40.81874600029775],[-81.36756799957725,40.81887600030742],[-81.36780299975388,40.81920899971907],[-81.36793400017345,40.81942100026807]],"type":"LineString"},"properties":{"BASENAME":"Cherry","MTFCC":"S1200","NAME":"Cherry Ave NE","OBJECTID":180969,"OID":"1104765242805","PREDIR":null,"PREDIRABRV":null,"PREQUAL":null,"PREQUALABRV":null,"PRETYP":null,"PRETYPEABRV":null,"RTTYP":"M","SUFDIR":15,"SUFDIRABRV":"NE","SUFQUAL":null,"SUFQUALABRV":null,"SUFTYP":125,"SUFTYPEABRV":"Ave","_gridCityId":"canton-oh","_gridSourceLayer":"secondary"},"type":"Feature"},{"geometry":{"coordinates":[[[-81.397598000399,40.82478800026599],[-81.39762799963792,40.824802999985664],[-81.39798099981533,40.82497399967742],[-81.39836999997776,40.82516299971811],[-81.39851100044308,40.82522799992415],[-81.3987800000566,40.825344999726646],[-81.39922500029553,40.82552200029041],[-81.39926499958015,40.825538999693684],[-81.39928700021979,40.82554699977124],[-81.39942699996188,40.82560300028716],[-81.3995120003507,40.825635999804284],[-81.39976400024578,40.82573600021826]],[[-81.39976400024578,40.82573600021826],[-81.39980500025365,40.82575200032487]],[[-81.39980500025365,40.82575200032487],[-81.40042500039478,40.8259969996911]],[[-81.40042500039478,40.8259969996911],[-81.40104700018568,40.82624200019145]],[[-81.40104700018568,40.82624200019145],[-81.40146499976213,40.82640399968673]],[[-81.40146499976213,40.82640399968673],[-81.40154500012807,40.82643499966249]]],"type":"MultiLineString"},"properties":{"BASENAME":"Fulton","MTFCC":"S1200","NAME":"Fulton Dr NW","OBJECTID":180970,"OID":"1104765242838","PREDIR":null,"PREDIRABRV":null,"PREQUAL":null,"PREQUALABRV":null,"PRETYP":null,"PRETYPEABRV":null,"RTTYP":"M","SUFDIR":16,"SUFDIRABRV":"NW","SUFQUAL":null,"SUFQUALABRV":null,"SUFTYP":247,"SUFTYPEABRV":"Dr","_gridCityId":"canton-oh","_gridSourceLayer":"secondary"},"type":"Feature"},{"geometry":{"coordinates":[[-81.37239100043875,40.79433800008031],[-81.3723529999056,40.794423000283615],[-81.37231400044587,40.79452899977664],[-81.37224800032362,40.79491899993182],[-81.37223499990485,40.794999000186145],[-81.37219700027002,40.79517800019363],[-81.37215000041434,40.79534799970061],[-81.37206800039857,40.79556399979047],[-81.37202499984255,40.79565599969088],[-81.37200300010124,40.795704000002274],[-81.3718240000011,40.79602899986582],[-81.37173600013755,40.79617699999625],[-81.37163900005318,40.79631199980909],[-81.3715560002125,40.79650000021951],[-81.37138499960997,40.79700000005126],[-81.37114299976062,40.797716999750016],[-81.37088400019286,40.79844100015795],[-81.37063899997047,40.79913499999337],[-81.37039399974807,40.79982100027428],[-81.37015000024891,40.8005209997338],[-81.36991000004942,40.80120399977621],[-81.3697829998278,40.801561000240326],[-81.36967800024581,40.80186300031467],[-81.36956899956756,40.802177000299395],[-81.36949800032076,40.80238400018507],[-81.36946800018353,40.80246900028617],[-81.36935900040359,40.80277899973258],[-81.36920100021985,40.80323399969781],[-81.36897899956368,40.80387699986096],[-81.36877000022461,40.80450299988423],[-81.36870099972934,40.804716000067586],[-81.3686560004218,40.80487299995662],[-81.36848599964418,40.80574499970476],[-81.36845399985714,40.80591699978997],[-81.36843799996359,40.8060039998847],[-81.36842799991786,40.806055000168584],[-81.36840600017656,40.80615500018477],[-81.36836599999359,40.806372000000835],[-81.3683030002444,40.80669899972761],[-81.36822999955113,40.80707999999065],[-81.368198999589,40.807249000094096],[-81.36803200008274,40.8081199997122],[-81.36785499963243,40.809043999831914],[-81.36782700004333,40.8095640002783],[-81.36780899960166,40.80990100016052],[-81.36780199992896,40.81004399984548],[-81.36779500025628,40.810173999909765],[-81.36770300019478,40.81202099998075],[-81.36768099955515,40.8124450001112],[-81.36766700020976,40.8127290002099],[-81.36762899967661,40.81345599967792],[-81.36759000021688,40.814181999922184],[-81.36755199968373,40.81491899995546],[-81.36750400000315,40.81593400017326],[-81.36748399991166,40.81617799970879],[-81.36745899979731,40.81637400010116],[-81.3674510002997,40.81641299982574],[-81.36743600023108,40.81648999982473],[-81.36740699991877,40.81663400032463],[-81.36716900026738,40.81747699986941],[-81.3671419996049,40.817642999874636],[-81.36713400010728,40.81775599997228],[-81.36713499993219,40.817873000038944],[-81.36715300037386,40.81803500026131],[-81.3671709999172,40.81811699992091],[-81.36719900040461,40.818203000300656],[-81.36730599963641,40.818464000185486],[-81.36737299958357,40.81858799989073],[-81.36747499969081,40.81874600029775],[-81.36756799957725,40.81887600030742],[-81.36780299975388,40.81920899971907],[-81.36793400017345,40.81942100026807]],"type":"LineString"},"properties":{"BASENAME":"43","MTFCC":"S1200","NAME":"State Rte 43","OBJECTID":180973,"OID":"1104765243239","PREDIR":null,"PREDIRABRV":null,"PREQUAL":null,"PREQUALABRV":null,"PRETYP":586,"PRETYPEABRV":"State Rte","RTTYP":"S","SUFDIR":null,"SUFDIRABRV":null,"SUFQUAL":null,"SUFQUALABRV":null,"SUFTYP":null,"SUFTYPEABRV":null,"_gridCityId":"canton-oh","_gridSourceLayer":"secondary"},"type":"Feature"},{"geometry":{"coordinates":[[[-81.31689199971593,40.82319599994202],[-81.31619499958194,40.823517999911964]],[[-81.31619499958194,40.823517999911964],[-81.3153810001704,40.82388700004951]],[[-81.3153810001704,40.82388700004951],[-81.31510900018381,40.824005000126334]]],"type":"MultiLineString"},"properties":{"BASENAME":"Louisville","MTFCC":"S1200","NAME":"Louisville St NE","OBJECTID":209578,"OID":"1106087432742","PREDIR":null,"PREDIRABRV":null,"PREQUAL":null,"PREQUALABRV":null,"PRETYP":null,"PRETYPEABRV":null,"RTTYP":"M","SUFDIR":15,"SUFDIRABRV":"NE","SUFQUAL":null,"SUFQUALABRV":null,"SUFTYP":595,"SUFTYPEABRV":"St","_gridCityId":"canton-oh","_gridSourceLayer":"secondary"},"type":"Feature"},{"geometry":{"coordinates":[[-81.37487500030284,40.79847099994817],[-81.37458900007259,40.79841500032886],[-81.37379900005216,40.798256999788265],[-81.37292500036615,40.79807900026097],[-81.37201800016986,40.79789399990644],[-81.37114299976062,40.797716999750016],[-81.37023399991452,40.79753700012119],[-81.37005700036252,40.79750200021222],[-81.36950599981837,40.7973930003387],[-81.36881999955501,40.7972559999818],[-81.368571000033,40.797206999760704],[-81.36802100021208,40.797096999729355],[-81.36779100005832,40.79705200012768],[-81.3663180001476,40.79675800007521],[-81.36612599962865,40.7967200000382],[-81.36568600031092,40.79663200033422],[-81.36553099960192,40.79660100003206],[-81.36498199960592,40.796489999994044],[-81.36323900025675,40.796140999682414],[-81.36317499978436,40.796128000338804],[-81.3627630000557,40.79604600002621],[-81.36229600007547,40.79595300029551],[-81.36190100006525,40.79587400020258],[-81.36138499968122,40.79577099989716],[-81.36090500018052,40.79567700008641],[-81.36043300017741,40.79558399983879],[-81.3599469999306,40.795484999914706],[-81.35980200016564,40.79545500013522],[-81.35955100009548,40.79540399986699],[-81.3585030003322,40.795187999936644],[-81.35834000012557,40.79515500023484],[-81.35819899966026,40.79512600000943],[-81.35783600033542,40.79505000008547],[-81.35766999975576,40.795015999930264],[-81.35715199972189,40.79490000006979],[-81.35693099978896,40.794851000149905],[-81.35663500041126,40.79478699981144],[-81.35624799989866,40.79470600027223],[-81.3558560002615,40.794625999664824],[-81.35546499955093,40.79454700003301],[-81.35539099993109,40.79453200027307],[-81.35469799999504,40.79439200031011],[-81.35387299981453,40.79422300011206],[-81.353055000205,40.794059000120285],[-81.35229000029895,40.793901999814935],[-81.35209500030527,40.79386200005899],[-81.35157200024854,40.79375600018114],[-81.35147900036212,40.79373699998628],[-81.3509439997115,40.7936300001832],[-81.35031100004993,40.793503000218536],[-81.34968800043409,40.79337199973272],[-81.34914399956264,40.79325499998885],[-81.34869099982612,40.79316100001618],[-81.34841999966446,40.79309999996992],[-81.34802700020239,40.79301299996308],[-81.34761399975052,40.79292000006426],[-81.34701600024903,40.79277799994546],[-81.34692699966226,40.79275999988959],[-81.34661799986577,40.79269499983597],[-81.34424199995672,40.79222599986519],[-81.34383199987789,40.79214499992194],[-81.34312999972103,40.79200800029676],[-81.34212600033867,40.79181100027074],[-81.34149100012895,40.79168799992702],[-81.3411079998143,40.791613999660214],[-81.34051000031283,40.79149899973448],[-81.33955200006291,40.79133499981513]],"type":"LineString"},"properties":{"BASENAME":"Tuscarawas","MTFCC":"S1200","NAME":"Tuscarawas St E","OBJECTID":211587,"OID":"1106092769686","PREDIR":null,"PREDIRABRV":null,"PREQUAL":null,"PREQUALABRV":null,"PRETYP":null,"PRETYPEABRV":null,"RTTYP":"M","SUFDIR":13,"SUFDIRABRV":"E","SUFQUAL":null,"SUFQUALABRV":null,"SUFTYP":595,"SUFTYPEABRV":"St","_gridCityId":"canton-oh","_gridSourceLayer":"secondary"},"type":"Feature"},{"geometry":{"coordinates":[[-81.36635199958448,40.82970800031734],[-81.36668600039363,40.82961299977218],[-81.36786200020343,40.829292999903885],[-81.3682320000993,40.829197000253984],[-81.36834599990209,40.829169999690215],[-81.36849900006297,40.82913299973049],[-81.36878299974511,40.82907700015635],[-81.3690289997924,40.82903500010487],[-81.36927200036496,40.82900399998506],[-81.36950900019143,40.828984999685204],[-81.36974600001788,40.82897500027645],[-81.37004300011881,40.82897199997774],[-81.37034000021974,40.82897899976823],[-81.37069599987188,40.8289980000698],[-81.37090900030721,40.82901599981389]],"type":"LineString"},"properties":{"BASENAME":"62","MTFCC":"S1200","NAME":"US Hwy 62","OBJECTID":219712,"OID":"1108296485461","PREDIR":null,"PREDIRABRV":null,"PREQUAL":null,"PREQUALABRV":null,"PRETYP":640,"PRETYPEABRV":"US Hwy","RTTYP":"U","SUFDIR":null,"SUFDIRABRV":null,"SUFQUAL":null,"SUFQUALABRV":null,"SUFTYP":null,"SUFTYPEABRV":null,"_gridCityId":"canton-oh","_gridSourceLayer":"secondary"},"type":"Feature"},{"geometry":{"coordinates":[[-81.37161899996168,40.828900000244666],[-81.370915000155,40.82883100005891],[-81.37061700022916,40.82880700033212],[-81.37006800023315,40.82878600022422],[-81.36976100008651,40.82878700010005],[-81.36945700031289,40.828804000025805],[-81.36926700034208,40.828820000071936],[-81.36903999966304,40.82884700009852],[-81.36880799985947,40.82888299966373],[-81.36850800028381,40.82894300025513],[-81.36823499957401,40.82900499985756],[-81.36787899992187,40.82909400000781],[-81.36716900026738,40.82928399973017],[-81.36635800033058,40.82950100002793]],"type":"LineString"},"properties":{"BASENAME":"62","MTFCC":"S1200","NAME":"US Hwy 62","OBJECTID":219714,"OID":"1108296485463","PREDIR":null,"PREDIRABRV":null,"PREQUAL":null,"PREQUALABRV":null,"PRETYP":640,"PRETYPEABRV":"US Hwy","RTTYP":"U","SUFDIR":null,"SUFDIRABRV":null,"SUFQUAL":null,"SUFQUALABRV":null,"SUFTYP":null,"SUFTYPEABRV":null,"_gridCityId":"canton-oh","_gridSourceLayer":"secondary"},"type":"Feature"},{"geometry":{"coordinates":[[-81.39398999970535,40.82979399994218],[-81.39449900041669,40.82958600005749],[-81.3954169995853,40.829210999786774],[-81.39598999987075,40.82897600014943],[-81.39697300023502,40.82857399970081],[-81.39722900032807,40.828473000287225]],"type":"LineString"},"properties":{"BASENAME":"62","MTFCC":"S1200","NAME":"US Hwy 62","OBJECTID":219715,"OID":"1108296485464","PREDIR":null,"PREDIRABRV":null,"PREQUAL":null,"PREQUALABRV":null,"PRETYP":640,"PRETYPEABRV":"US Hwy","RTTYP":"U","SUFDIR":null,"SUFDIRABRV":null,"SUFQUAL":null,"SUFQUALABRV":null,"SUFTYP":null,"SUFTYPEABRV":null,"_gridCityId":"canton-oh","_gridSourceLayer":"secondary"},"type":"Feature"},{"geometry":{"coordinates":[[-81.39507199980382,40.829155000278504],[-81.39525000007905,40.829098000172145],[-81.39537200027779,40.82904799979999],[-81.39545799959319,40.82901300019672],[-81.39594499966492,40.82881400014008],[-81.39631100026112,40.82866400030722],[-81.39695599961827,40.82840100001234]],"type":"LineString"},"properties":{"BASENAME":"62","MTFCC":"S1200","NAME":"US Hwy 62","OBJECTID":219716,"OID":"1108296485465","PREDIR":null,"PREDIRABRV":null,"PREQUAL":null,"PREQUALABRV":null,"PRETYP":640,"PRETYPEABRV":"US Hwy","RTTYP":"U","SUFDIR":null,"SUFDIRABRV":null,"SUFQUAL":null,"SUFQUALABRV":null,"SUFTYP":null,"SUFTYPEABRV":null,"_gridCityId":"canton-oh","_gridSourceLayer":"secondary"},"type":"Feature"},{"geometry":{"coordinates":[[[-81.33989699984441,40.83410700011578],[-81.33883800021046,40.83446299979382]],[[-81.33883800021046,40.83446299979382],[-81.33823899998576,40.83465700027229]],[[-81.33823899998576,40.83465700027229],[-81.3375240003084,40.834873999977205]],[[-81.3375240003084,40.834873999977205],[-81.33686099961128,40.83506799993264]],[[-81.33686099961128,40.83506799993264],[-81.33641899974539,40.83518800006234]],[[-81.33641899974539,40.83518800006234],[-81.33574099987798,40.83535900016068]],[[-81.33574099987798,40.83535900016068],[-81.33544299995215,40.83542999990104]],[[-81.33544299995215,40.83542999990104],[-81.33511999991197,40.8355070002514]],[[-81.33511999991197,40.8355070002514],[-81.33444200004453,40.83566199977639]],[[-81.33444200004453,40.83566199977639],[-81.33438199977006,40.83567599998313],[-81.3271460000879,40.837215999915614],[-81.32455000007081,40.83776699984577],[-81.32046100005154,40.83863600030552],[-81.31734199997774,40.83929500013039],[-81.31589199963324,40.839602000315786],[-81.31429900007191,40.83994500011403],[-81.31350300020372,40.84012199976343],[-81.31270999981024,40.8403099997412],[-81.31192200033794,40.84050600017691],[-81.31130600039481,40.84066899985858],[-81.31063900039804,40.84085800001747],[-81.30992200017255,40.841072000061004],[-81.30919400007639,40.84129900010462],[-81.30752699999692,40.84183100005886],[-81.30749600003479,40.841841999926025],[-81.30240399955976,40.84347200021603],[-81.30156800040689,40.84373800016086],[-81.30129700024523,40.84382399993509],[-81.29772700008473,40.844959000296825]]],"type":"MultiLineString"},"properties":{"BASENAME":"62","MTFCC":"S1200","NAME":"US Hwy 62","OBJECTID":219828,"OID":"1108296485466","PREDIR":null,"PREDIRABRV":null,"PREQUAL":null,"PREQUALABRV":null,"PRETYP":640,"PRETYPEABRV":"US Hwy","RTTYP":"U","SUFDIR":null,"SUFDIRABRV":null,"SUFQUAL":null,"SUFQUALABRV":null,"SUFTYP":null,"SUFTYPEABRV":null,"_gridCityId":"canton-oh","_gridSourceLayer":"secondary"},"type":"Feature"},{"geometry":{"coordinates":[[-81.37161899996168,40.828900000244666],[-81.370915000155,40.82883100005891],[-81.37061700022916,40.82880700033212],[-81.37006800023315,40.82878600022422],[-81.36976100008651,40.82878700010005],[-81.36945700031289,40.828804000025805],[-81.36926700034208,40.828820000071936],[-81.36903999966304,40.82884700009852],[-81.36880799985947,40.82888299966373],[-81.36850800028381,40.82894300025513],[-81.36823499957401,40.82900499985756],[-81.36787899992187,40.82909400000781],[-81.36716900026738,40.82928399973017],[-81.36635800033058,40.82950100002793]],"type":"LineString"},"properties":{"BASENAME":"Malone","MTFCC":"S1200","NAME":"Malone Pkwy NW","OBJECTID":220668,"OID":"1108296485769","PREDIR":null,"PREDIRABRV":null,"PREQUAL":null,"PREQUALABRV":null,"PRETYP":null,"PRETYPEABRV":null,"RTTYP":"M","SUFDIR":16,"SUFDIRABRV":"NW","SUFQUAL":null,"SUFQUALABRV":null,"SUFTYP":460,"SUFTYPEABRV":"Pkwy","_gridCityId":"canton-oh","_gridSourceLayer":"secondary"},"type":"Feature"},{"geometry":{"coordinates":[[-81.39507199980382,40.829155000278504],[-81.39525000007905,40.829098000172145],[-81.39537200027779,40.82904799979999],[-81.39545799959319,40.82901300019672],[-81.39594499966492,40.82881400014008],[-81.39631100026112,40.82866400030722],[-81.39695599961827,40.82840100001234]],"type":"LineString"},"properties":{"BASENAME":"Malone","MTFCC":"S1200","NAME":"Malone Pkwy NW","OBJECTID":220669,"OID":"1108296485770","PREDIR":null,"PREDIRABRV":null,"PREQUAL":null,"PREQUALABRV":null,"PRETYP":null,"PRETYPEABRV":null,"RTTYP":"M","SUFDIR":16,"SUFDIRABRV":"NW","SUFQUAL":null,"SUFQUALABRV":null,"SUFTYP":460,"SUFTYPEABRV":"Pkwy","_gridCityId":"canton-oh","_gridSourceLayer":"secondary"},"type":"Feature"},{"geometry":{"coordinates":[[-81.36635199958448,40.82970800031734],[-81.36668600039363,40.82961299977218],[-81.36786200020343,40.829292999903885],[-81.3682320000993,40.829197000253984],[-81.36834599990209,40.829169999690215],[-81.36849900006297,40.82913299973049],[-81.36878299974511,40.82907700015635],[-81.3690289997924,40.82903500010487],[-81.36927200036496,40.82900399998506],[-81.36950900019143,40.828984999685204],[-81.36974600001788,40.82897500027645],[-81.37004300011881,40.82897199997774],[-81.37034000021974,40.82897899976823],[-81.37069599987188,40.8289980000698],[-81.37090900030721,40.82901599981389]],"type":"LineString"},"properties":{"BASENAME":"Malone","MTFCC":"S1200","NAME":"Malone Pkwy NW","OBJECTID":220670,"OID":"1108296485771","PREDIR":null,"PREDIRABRV":null,"PREQUAL":null,"PREQUALABRV":null,"PRETYP":null,"PRETYPEABRV":null,"RTTYP":"M","SUFDIR":16,"SUFDIRABRV":"NW","SUFQUAL":null,"SUFQUALABRV":null,"SUFTYP":460,"SUFTYPEABRV":"Pkwy","_gridCityId":"canton-oh","_gridSourceLayer":"secondary"},"type":"Feature"},{"geometry":{"coordinates":[[-81.39398999970535,40.82979399994218],[-81.39449900041669,40.82958600005749],[-81.3954169995853,40.829210999786774],[-81.39598999987075,40.82897600014943],[-81.39697300023502,40.82857399970081],[-81.39722900032807,40.828473000287225]],"type":"LineString"},"properties":{"BASENAME":"Malone","MTFCC":"S1200","NAME":"Malone Pkwy NW","OBJECTID":220671,"OID":"1108296485772","PREDIR":null,"PREDIRABRV":null,"PREQUAL":null,"PREQUALABRV":null,"PRETYP":null,"PRETYPEABRV":null,"RTTYP":"M","SUFDIR":16,"SUFDIRABRV":"NW","SUFQUAL":null,"SUFQUALABRV":null,"SUFTYP":460,"SUFTYPEABRV":"Pkwy","_gridCityId":"canton-oh","_gridSourceLayer":"secondary"},"type":"Feature"},{"geometry":{"coordinates":[[-81.37239100043875,40.79433800008031],[-81.37240499978417,40.794254999880785],[-81.37241200035515,40.794209999712805],[-81.37247400027944,40.79383500007409],[-81.37252299978492,40.793540000329685],[-81.37256200014299,40.7933070002783],[-81.37263099973997,40.79288900006902],[-81.3727529999387,40.792150000022026],[-81.37303699962081,40.79043700027464],[-81.3731549996216,40.78981299978608],[-81.37325199970599,40.78909599974074],[-81.37329899956164,40.788786000327086],[-81.37340200039212,40.78813099979054],[-81.37344400022491,40.78783599986855],[-81.37346699979113,40.78759699994606],[-81.3734640003164,40.787502000307114],[-81.37346199976827,40.78742999977427],[-81.37345400027066,40.787289999799455]],"type":"LineString"},"properties":{"BASENAME":"43","MTFCC":"S1200","NAME":"State Rte 43","OBJECTID":221086,"OID":"1108296486565","PREDIR":null,"PREDIRABRV":null,"PREQUAL":null,"PREQUALABRV":null,"PRETYP":586,"PRETYPEABRV":"State Rte","RTTYP":"S","SUFDIR":null,"SUFDIRABRV":null,"SUFQUAL":null,"SUFQUALABRV":null,"SUFTYP":null,"SUFTYPEABRV":null,"_gridCityId":"canton-oh","_gridSourceLayer":"secondary"},"type":"Feature"},{"geometry":{"coordinates":[[-81.34947900019672,40.78805299972185],[-81.34945699955709,40.788008000111425],[-81.34938299993725,40.78785300008638],[-81.34917799989783,40.78742100004223],[-81.34911000012578,40.78728700033602],[-81.34904700037659,40.78717700019239],[-81.34903800015574,40.78716299995082],[-81.34886699955321,40.7868850002752],[-81.34875600012344,40.786723000182015],[-81.34834600004463,40.78618300019135],[-81.34803899989795,40.78578699999208],[-81.3479850003696,40.7857089998909],[-81.3479729997757,40.785695000020034]],"type":"LineString"},"properties":{"BASENAME":"43","MTFCC":"S1200","NAME":"State Rte 43","OBJECTID":221087,"OID":"1108296486566","PREDIR":null,"PREDIRABRV":null,"PREQUAL":null,"PREQUALABRV":null,"PRETYP":586,"PRETYPEABRV":"State Rte","RTTYP":"S","SUFDIR":null,"SUFDIRABRV":null,"SUFQUAL":null,"SUFQUALABRV":null,"SUFTYP":null,"SUFTYPEABRV":null,"_gridCityId":"canton-oh","_gridSourceLayer":"secondary"},"type":"Feature"},{"geometry":{"coordinates":[[[-81.3277179996501,40.78371999968684],[-81.32698500042942,40.7837019998962],[-81.32540100019061,40.78367300010994],[-81.32181400031168,40.78360600025033],[-81.32126799979041,40.7835890003057],[-81.32070000042613,40.78358099993011],[-81.3205420002424,40.78357300023375],[-81.320521000326,40.78392899973255],[-81.32047699994507,40.78468499979837],[-81.32038900008153,40.786116000143224],[-81.32037900003576,40.78628199970215],[-81.32031100026371,40.787341999999455],[-81.32027199990566,40.78806100023888],[-81.32023500009572,40.7886140000589],[-81.32022699969981,40.78873900025452],[-81.32020099976054,40.78915400000566]],[[-81.32020099976054,40.78915400000566],[-81.31964199971881,40.789114000109805]],[[-81.31964199971881,40.789114000109805],[-81.3195570002283,40.789107999987316]],[[-81.3195570002283,40.789107999987316],[-81.31827699976311,40.78901800012545]],[[-81.31827699976311,40.78901800012545],[-81.31736700009209,40.78896599987761]],[[-81.31736700009209,40.78896599987761],[-81.3168520004313,40.78893200000746]]],"type":"MultiLineString"},"properties":{"BASENAME":"30","MTFCC":"S1200","NAME":"US Hwy 30","OBJECTID":222982,"OID":"1108296488225","PREDIR":null,"PREDIRABRV":null,"PREQUAL":null,"PREQUALABRV":null,"PRETYP":640,"PRETYPEABRV":"US Hwy","RTTYP":"U","SUFDIR":null,"SUFDIRABRV":null,"SUFQUAL":null,"SUFQUALABRV":null,"SUFTYP":null,"SUFTYPEABRV":null,"_gridCityId":"canton-oh","_gridSourceLayer":"secondary"},"type":"Feature"}],"name":"canton-secondary-roads-clipped","type":"FeatureCollection"}
